{
"type": "FeatureCollection",
"name": "marmara_faults",
"crs": { "type": "name", "properties": { "name": "urn:ogc:def:crs:EPSG::4979" } },
"features": [
{ "type": "Feature", "properties": { "accuracy": null, "activity_confidence": null, "average_dip": "(45.0,35.0,55.0)", "average_rake": "(-65,-80.0,-50.0)", "catalog_id": "ME_BGCS001", "catalog_name": "EMME", "dip_dir": null, "downthrown_side_dir": null, "downthrown_side_id": null, "epistemic_quality": "1", "exposure_quality": null, "fs_name": null, "last_movement": null, "lower_seis_depth": "(15.0,,)", "name": null, "net_slip_rate": "(0.2,0.1,0.4)", "notes": null, "reference": null, "shortening_rate": null, "slip_type": "Sinistral-Normal", "strike_slip_rate": null, "upper_seis_depth": "(0.0,,)", "vert_sep_rate": null }, "geometry": { "type": "LineString", "coordinates": [ [ 26.347992, 41.844493 ], [ 26.234177, 41.8739 ], [ 26.133505703212801, 41.9 ] ] } },
{ "type": "Feature", "properties": { "accuracy": null, "activity_confidence": null, "average_dip": "(47.5,40.0,55.0)", "average_rake": "(-75,-90.0,-60.0)", "catalog_id": "ME_BGCS006", "catalog_name": "EMME", "dip_dir": null, "downthrown_side_dir": null, "downthrown_side_id": null, "epistemic_quality": "1", "exposure_quality": null, "fs_name": null, "last_movement": null, "lower_seis_depth": "(15.0,,)", "name": null, "net_slip_rate": "(0.2,0.1,0.4)", "notes": null, "reference": null, "shortening_rate": null, "slip_type": "Normal", "strike_slip_rate": null, "upper_seis_depth": "(1.0,,)", "vert_sep_rate": null }, "geometry": { "type": "LineString", "coordinates": [ [ 26.176791, 41.711203 ], [ 26.123651, 41.72388 ], [ 26.081451, 41.735404 ], [ 26.018933, 41.745777 ], [ 25.970481, 41.748081 ], [ 25.911091, 41.746929 ], [ 25.839195, 41.743472 ], [ 25.782929, 41.751539 ], [ 25.725474, 41.76539 ], [ 25.68577, 41.783446 ], [ 25.646065, 41.801502 ], [ 25.6, 41.818278872475972 ] ] } },
{ "type": "Feature", "properties": { "accuracy": null, "activity_confidence": null, "average_dip": "(62.5,50.0,75.0)", "average_rake": "(-80,-90.0,-70.0)", "catalog_id": "ME_BGCS007", "catalog_name": "EMME", "dip_dir": null, "downthrown_side_dir": null, "downthrown_side_id": null, "epistemic_quality": "1", "exposure_quality": null, "fs_name": null, "last_movement": null, "lower_seis_depth": "(15.0,,)", "name": null, "net_slip_rate": "(0.2,0.1,0.4)", "notes": null, "reference": null, "shortening_rate": null, "slip_type": "Normal", "strike_slip_rate": null, "upper_seis_depth": "(1.0,,)", "vert_sep_rate": null }, "geometry": { "type": "LineString", "coordinates": [ [ 26.591698, 41.834274 ], [ 26.566001, 41.858706 ], [ 26.540305, 41.883137 ], [ 26.522568895260317, 41.9 ] ] } },
{ "type": "Feature", "properties": { "accuracy": null, "activity_confidence": null, "average_dip": "(55.0,35.0,75.0)", "average_rake": "(-115,-160.0,-70.0)", "catalog_id": "ME_GRCS150", "catalog_name": "EMME", "dip_dir": null, "downthrown_side_dir": null, "downthrown_side_id": null, "epistemic_quality": "1", "exposure_quality": null, "fs_name": null, "last_movement": null, "lower_seis_depth": "(14.0,,)", "name": null, "net_slip_rate": "(0.3,0.2,0.5)", "notes": null, "reference": null, "shortening_rate": null, "slip_type": "Dextral-Normal", "strike_slip_rate": null, "upper_seis_depth": "(0.0,,)", "vert_sep_rate": null }, "geometry": { "type": "LineString", "coordinates": [ [ 25.6, 41.135198090316806 ], [ 25.603306, 41.134447 ], [ 25.644498, 41.125049 ], [ 25.689884, 41.112959 ], [ 25.743292, 41.1 ], [ 25.786962, 41.091728 ], [ 25.826633, 41.086023 ] ] } },
{ "type": "Feature", "properties": { "accuracy": null, "activity_confidence": null, "average_dip": "(60.0,45.0,75.0)", "average_rake": "(-105,-130.0,-80.0)", "catalog_id": "ME_GRCS160", "catalog_name": "EMME", "dip_dir": null, "downthrown_side_dir": null, "downthrown_side_id": null, "epistemic_quality": "1", "exposure_quality": null, "fs_name": null, "last_movement": null, "lower_seis_depth": "(14.0,,)", "name": null, "net_slip_rate": "(0.6,0.4,0.7)", "notes": null, "reference": null, "shortening_rate": null, "slip_type": "Normal", "strike_slip_rate": null, "upper_seis_depth": "(0.0,,)", "vert_sep_rate": null }, "geometry": { "type": "LineString", "coordinates": [ [ 26.129644, 40.847688 ], [ 26.075288, 40.845883 ], [ 26.043484, 40.846334 ], [ 26.009367, 40.847237 ], [ 25.977563, 40.847237 ], [ 25.93882, 40.849945 ], [ 25.898921, 40.851299 ], [ 25.872755, 40.851635 ], [ 25.848035, 40.85087 ], [ 25.818977, 40.851089 ], [ 25.795541, 40.850947 ], [ 25.772571, 40.849996 ], [ 25.732671, 40.847154 ], [ 25.703369, 40.847658 ], [ 25.664393, 40.855469 ], [ 25.632694, 40.862169 ], [ 25.605403, 40.864925 ], [ 25.6, 40.864541735761129 ] ] } },
{ "type": "Feature", "properties": { "accuracy": null, "activity_confidence": null, "average_dip": "(62.5,45.0,80.0)", "average_rake": "(-105,-120.0,-90.0)", "catalog_id": "ME_GRCS170", "catalog_name": "EMME", "dip_dir": null, "downthrown_side_dir": null, "downthrown_side_id": null, "epistemic_quality": "1", "exposure_quality": null, "fs_name": null, "last_movement": null, "lower_seis_depth": "(14.0,,)", "name": null, "net_slip_rate": "(0.3,0.3,0.3)", "notes": null, "reference": null, "shortening_rate": null, "slip_type": "Normal", "strike_slip_rate": null, "upper_seis_depth": "(0.0,,)", "vert_sep_rate": null }, "geometry": { "type": "LineString", "coordinates": [ [ 26.121717, 41.542607 ], [ 26.165257, 41.551238 ], [ 26.208797, 41.559869 ], [ 26.238586, 41.566811 ], [ 26.289786, 41.574118 ], [ 26.328418, 41.58033 ], [ 26.367051, 41.586541 ], [ 26.40708, 41.592752 ], [ 26.447109, 41.598963 ], [ 26.481553, 41.604809 ], [ 26.515996, 41.610655 ], [ 26.574329, 41.619393 ] ] } },
{ "type": "Feature", "properties": { "accuracy": null, "activity_confidence": null, "average_dip": "(60.0,45.0,75.0)", "average_rake": "(-105,-120.0,-90.0)", "catalog_id": "ME_GRCS288", "catalog_name": "EMME", "dip_dir": null, "downthrown_side_dir": null, "downthrown_side_id": null, "epistemic_quality": "1", "exposure_quality": null, "fs_name": null, "last_movement": null, "lower_seis_depth": "(13.0,,)", "name": null, "net_slip_rate": "(0.6,0.1,1.0)", "notes": null, "reference": null, "shortening_rate": null, "slip_type": "Normal", "strike_slip_rate": null, "upper_seis_depth": "(0.0,,)", "vert_sep_rate": null }, "geometry": { "type": "LineString", "coordinates": [ [ 25.6, 40.489201026485624 ], [ 25.615575, 40.485746 ], [ 25.667735, 40.473573 ], [ 25.719895, 40.461401 ], [ 25.754833, 40.453726 ], [ 25.78977, 40.44605 ] ] } },
{ "type": "Feature", "properties": { "accuracy": null, "activity_confidence": null, "average_dip": "(89.0,89.0,89.0)", "average_rake": "(8,180.0,-163.0)", "catalog_id": "ME_TRCS009", "catalog_name": "EMME", "dip_dir": null, "downthrown_side_dir": null, "downthrown_side_id": null, "epistemic_quality": "1", "exposure_quality": null, "fs_name": null, "last_movement": null, "lower_seis_depth": "(18.0,,)", "name": null, "net_slip_rate": "(12.6,12.0,13.1899)", "notes": null, "reference": null, "shortening_rate": null, "slip_type": "Dextral", "strike_slip_rate": null, "upper_seis_depth": "(0.0,,)", "vert_sep_rate": null }, "geometry": { "type": "LineString", "coordinates": [ [ 30.417031, 40.645341 ], [ 30.476308, 40.633956 ], [ 30.535585, 40.622571 ], [ 30.594843, 40.61119 ], [ 30.654101, 40.599809 ], [ 30.71334, 40.588431 ], [ 30.772579, 40.577053 ], [ 30.833562, 40.574299 ], [ 30.894545, 40.571544 ], [ 30.9, 40.571691246490758 ] ] } },
{ "type": "Feature", "properties": { "accuracy": null, "activity_confidence": null, "average_dip": "(84.0,83.0,85.0)", "average_rake": "(26,180.0,-127.0)", "catalog_id": "ME_TRCS012", "catalog_name": "EMME", "dip_dir": null, "downthrown_side_dir": null, "downthrown_side_id": null, "epistemic_quality": "1", "exposure_quality": null, "fs_name": null, "last_movement": null, "lower_seis_depth": "(18.0,,)", "name": null, "net_slip_rate": "(10.7,1.4195,20.0489)", "notes": null, "reference": null, "shortening_rate": null, "slip_type": "Dextral-Normal", "strike_slip_rate": null, "upper_seis_depth": "(0.0,,)", "vert_sep_rate": null }, "geometry": { "type": "LineString", "coordinates": [ [ 29.3275, 40.7259 ], [ 29.44555, 40.72737 ], [ 29.563603, 40.72884 ], [ 29.681251, 40.736457 ], [ 29.791993, 40.705459 ], [ 29.909753, 40.71155 ], [ 30.026666, 40.723943 ], [ 30.144715, 40.725274 ], [ 30.262779, 40.725372 ], [ 30.379942, 40.714397 ], [ 30.497906, 40.711151 ], [ 30.611161, 40.685999 ], [ 30.728272, 40.696986 ], [ 30.836032, 40.733514 ], [ 30.9, 40.749435090144452 ] ] } },
{ "type": "Feature", "properties": { "accuracy": null, "activity_confidence": null, "average_dip": "(56.5,35.0,78.0)", "average_rake": "(12,180.0,-156.0)", "catalog_id": "ME_TRCS013", "catalog_name": "EMME", "dip_dir": null, "downthrown_side_dir": null, "downthrown_side_id": null, "epistemic_quality": "1", "exposure_quality": null, "fs_name": null, "last_movement": null, "lower_seis_depth": "(15.0,,)", "name": null, "net_slip_rate": "(21.4,15.0,27.9)", "notes": null, "reference": null, "shortening_rate": null, "slip_type": "Dextral", "strike_slip_rate": null, "upper_seis_depth": "(0.5,,)", "vert_sep_rate": null }, "geometry": { "type": "LineString", "coordinates": [ [ 28.0563, 40.7968 ], [ 28.116661, 40.807777 ], [ 28.177022, 40.818754 ], [ 28.237518, 40.829367 ], [ 28.298014, 40.839979 ], [ 28.35958, 40.846214 ], [ 28.421145, 40.852448 ], [ 28.482832, 40.858031 ], [ 28.544518, 40.863614 ], [ 28.606536, 40.866479 ], [ 28.668554, 40.869343 ], [ 28.730577, 40.872208 ], [ 28.7926, 40.875073 ], [ 28.853591, 40.866096 ], [ 28.914582, 40.857118 ], [ 28.967916, 40.833045 ], [ 29.02125, 40.808972 ], [ 29.074556, 40.784913 ], [ 29.127861, 40.760853 ], [ 29.2279, 40.7157 ] ] } },
{ "type": "Feature", "properties": { "accuracy": null, "activity_confidence": null, "average_dip": "(62.0,58.0,66.0)", "average_rake": "(-156,-171.0,-142.0)", "catalog_id": "ME_TRCS014", "catalog_name": "EMME", "dip_dir": null, "downthrown_side_dir": null, "downthrown_side_id": null, "epistemic_quality": "1", "exposure_quality": null, "fs_name": null, "last_movement": null, "lower_seis_depth": "(18.0,,)", "name": null, "net_slip_rate": "(0.8,0.7,1.0)", "notes": null, "reference": null, "shortening_rate": null, "slip_type": "Dextral-Normal", "strike_slip_rate": null, "upper_seis_depth": "(0.0,,)", "vert_sep_rate": null }, "geometry": { "type": "LineString", "coordinates": [ [ 28.7511, 40.7298 ], [ 28.806491, 40.719904 ], [ 28.861882, 40.710007 ], [ 28.898384, 40.67693 ], [ 28.934885, 40.643852 ], [ 28.991113, 40.650216 ], [ 29.04734, 40.656579 ], [ 29.103262, 40.664388 ], [ 29.159184, 40.672196 ], [ 29.215207, 40.67964 ], [ 29.271229, 40.687084 ], [ 29.326984, 40.69565 ], [ 29.382739, 40.704215 ], [ 29.42012, 40.709958 ], [ 29.4575, 40.7157 ] ] } },
{ "type": "Feature", "properties": { "accuracy": null, "activity_confidence": null, "average_dip": "(85.0,80.0,90.0)", "average_rake": "(-146,-166.0,-126.0)", "catalog_id": "ME_TRCS015", "catalog_name": "EMME", "dip_dir": null, "downthrown_side_dir": null, "downthrown_side_id": null, "epistemic_quality": "1", "exposure_quality": null, "fs_name": null, "last_movement": null, "lower_seis_depth": "(18.0,,)", "name": null, "net_slip_rate": "(0.8,0.7,1.0)", "notes": null, "reference": null, "shortening_rate": null, "slip_type": "Dextral-Normal", "strike_slip_rate": null, "upper_seis_depth": "(0.0,,)", "vert_sep_rate": null }, "geometry": { "type": "LineString", "coordinates": [ [ 28.2957, 40.7189 ], [ 28.345701, 40.691778 ], [ 28.395702, 40.664655 ], [ 28.445676, 40.637548 ], [ 28.495651, 40.61044 ], [ 28.545598, 40.583347 ], [ 28.595546, 40.556254 ], [ 28.654718, 40.54396 ], [ 28.713889, 40.531665 ], [ 28.769515, 40.55133 ], [ 28.82514, 40.570995 ], [ 28.880792, 40.59067 ], [ 28.936444, 40.610345 ], [ 28.986022, 40.627873 ], [ 29.0356, 40.6454 ] ] } },
{ "type": "Feature", "properties": { "accuracy": null, "activity_confidence": null, "average_dip": "(70.0,70.0,70.0)", "average_rake": "(-143,-147.0,-140.0)", "catalog_id": "ME_TRCS018", "catalog_name": "EMME", "dip_dir": null, "downthrown_side_dir": null, "downthrown_side_id": null, "epistemic_quality": "1", "exposure_quality": null, "fs_name": null, "last_movement": null, "lower_seis_depth": "(18.0,,)", "name": null, "net_slip_rate": "(4.0,1.0,7.0)", "notes": null, "reference": null, "shortening_rate": null, "slip_type": "Dextral-Normal", "strike_slip_rate": null, "upper_seis_depth": "(0.5,,)", "vert_sep_rate": null }, "geometry": { "type": "LineString", "coordinates": [ [ 25.800556, 40.245041 ], [ 25.829802, 40.281409 ], [ 25.859048, 40.317778 ], [ 25.89593, 40.349879 ], [ 25.932812, 40.38198 ], [ 25.981325, 40.40333 ], [ 26.029838, 40.424681 ], [ 26.076999, 40.445437 ], [ 26.124159, 40.466192 ] ] } },
{ "type": "Feature", "properties": { "accuracy": null, "activity_confidence": null, "average_dip": "(70.0,70.0,70.0)", "average_rake": "(-174,-174.0,-174.0)", "catalog_id": "ME_TRCS019", "catalog_name": "EMME", "dip_dir": null, "downthrown_side_dir": null, "downthrown_side_id": null, "epistemic_quality": "1", "exposure_quality": null, "fs_name": null, "last_movement": null, "lower_seis_depth": "(18.0,,)", "name": null, "net_slip_rate": "(4.0,1.0,7.0)", "notes": null, "reference": null, "shortening_rate": null, "slip_type": "Dextral", "strike_slip_rate": null, "upper_seis_depth": "(0.5,,)", "vert_sep_rate": null }, "geometry": { "type": "LineString", "coordinates": [ [ 25.6, 40.24082787139843 ], [ 25.619418, 40.245658 ], [ 25.674394, 40.259333 ], [ 25.728197, 40.272717 ], [ 25.782, 40.2861 ] ] } },
{ "type": "Feature", "properties": { "accuracy": null, "activity_confidence": null, "average_dip": "(75.0,65.0,85.0)", "average_rake": "(17,180.0,-145.0)", "catalog_id": "ME_TRCS022", "catalog_name": "EMME", "dip_dir": null, "downthrown_side_dir": null, "downthrown_side_id": null, "epistemic_quality": "1", "exposure_quality": null, "fs_name": null, "last_movement": null, "lower_seis_depth": "(18.0,,)", "name": null, "net_slip_rate": "(6.4,4.8589,8.0)", "notes": null, "reference": null, "shortening_rate": null, "slip_type": "Dextral", "strike_slip_rate": null, "upper_seis_depth": "(0.0,,)", "vert_sep_rate": null }, "geometry": { "type": "LineString", "coordinates": [ [ 29.050486, 40.424473 ], [ 29.169665, 40.419589 ], [ 29.288836, 40.414705 ], [ 29.40615, 40.398109 ], [ 29.523769, 40.382936 ], [ 29.642851, 40.388236 ], [ 29.760863, 40.401554 ], [ 29.878859, 40.415078 ], [ 29.996691, 40.42953 ], [ 30.114548, 40.443985 ], [ 30.226439, 40.475729 ], [ 30.342462, 40.497385 ], [ 30.45852, 40.519048 ], [ 30.574613, 40.540718 ], [ 30.61799, 40.556235 ], [ 30.680509, 40.570695 ] ] } },
{ "type": "Feature", "properties": { "accuracy": null, "activity_confidence": null, "average_dip": "(85.0,85.0,85.0)", "average_rake": "(17,180.0,-146.0)", "catalog_id": "ME_TRCS023", "catalog_name": "EMME", "dip_dir": null, "downthrown_side_dir": null, "downthrown_side_id": null, "epistemic_quality": "1", "exposure_quality": null, "fs_name": null, "last_movement": null, "lower_seis_depth": "(18.0,,)", "name": null, "net_slip_rate": "(5.3,5.3,5.388)", "notes": null, "reference": null, "shortening_rate": null, "slip_type": "Dextral", "strike_slip_rate": null, "upper_seis_depth": "(0.0,,)", "vert_sep_rate": null }, "geometry": { "type": "LineString", "coordinates": [ [ 27.957, 40.4104 ], [ 28.013158, 40.418471 ], [ 28.069315, 40.426542 ], [ 28.125486, 40.434615 ], [ 28.181656, 40.442688 ], [ 28.23784, 40.450763 ], [ 28.294023, 40.458838 ], [ 28.350306, 40.466558 ], [ 28.406589, 40.474277 ], [ 28.463631, 40.471099 ], [ 28.520673, 40.467921 ], [ 28.577581, 40.46362 ], [ 28.634488, 40.459319 ], [ 28.691439, 40.455416 ], [ 28.74839, 40.451512 ], [ 28.804653, 40.443785 ], [ 28.860915, 40.436058 ], [ 28.914221, 40.420367 ], [ 28.967527, 40.404676 ], [ 29.0782, 40.3946 ] ] } },
{ "type": "Feature", "properties": { "accuracy": null, "activity_confidence": null, "average_dip": "(67.0,49.0,85.0)", "average_rake": "(180,180.0,180.0)", "catalog_id": "ME_TRCS024", "catalog_name": "EMME", "dip_dir": null, "downthrown_side_dir": null, "downthrown_side_id": null, "epistemic_quality": "1", "exposure_quality": null, "fs_name": null, "last_movement": null, "lower_seis_depth": "(18.0,,)", "name": null, "net_slip_rate": "(3.0,3.0,3.0)", "notes": null, "reference": null, "shortening_rate": null, "slip_type": "Dextral", "strike_slip_rate": null, "upper_seis_depth": "(0.0,,)", "vert_sep_rate": null }, "geometry": { "type": "LineString", "coordinates": [ [ 27.466, 40.2715 ], [ 27.50564, 40.270746 ], [ 27.545279, 40.269991 ], [ 27.584919, 40.269237 ], [ 27.622189, 40.279586 ], [ 27.659459, 40.289935 ], [ 27.696729, 40.300284 ], [ 27.732543, 40.313312 ], [ 27.768357, 40.326339 ], [ 27.804171, 40.339367 ], [ 27.857136, 40.358634 ], [ 27.9101, 40.3779 ] ] } },
{ "type": "Feature", "properties": { "accuracy": null, "activity_confidence": null, "average_dip": "(85.0,85.0,85.0)", "average_rake": "(180,180.0,180.0)", "catalog_id": "ME_TRCS025", "catalog_name": "EMME", "dip_dir": null, "downthrown_side_dir": null, "downthrown_side_id": null, "epistemic_quality": "1", "exposure_quality": null, "fs_name": null, "last_movement": null, "lower_seis_depth": "(18.0,,)", "name": null, "net_slip_rate": "(3.0,3.0,3.0)", "notes": null, "reference": null, "shortening_rate": null, "slip_type": "Dextral", "strike_slip_rate": null, "upper_seis_depth": "(0.0,,)", "vert_sep_rate": null }, "geometry": { "type": "LineString", "coordinates": [ [ 27.2535, 40.0667 ], [ 27.289802, 40.084905 ], [ 27.326104, 40.103109 ], [ 27.362406, 40.121314 ], [ 27.399073, 40.13912 ], [ 27.435741, 40.156925 ], [ 27.472408, 40.174731 ], [ 27.513054, 40.186504 ], [ 27.5537, 40.198277 ], [ 27.594346, 40.21005 ], [ 27.634797, 40.221767 ], [ 27.675249, 40.233483 ], [ 27.7157, 40.2452 ] ] } },
{ "type": "Feature", "properties": { "accuracy": null, "activity_confidence": null, "average_dip": "(85.0,85.0,85.0)", "average_rake": "(7,180.0,-166.0)", "catalog_id": "ME_TRCS027", "catalog_name": "EMME", "dip_dir": null, "downthrown_side_dir": null, "downthrown_side_id": null, "epistemic_quality": "1", "exposure_quality": null, "fs_name": null, "last_movement": null, "lower_seis_depth": "(18.0,,)", "name": null, "net_slip_rate": "(3.6,3.0,4.124)", "notes": null, "reference": null, "shortening_rate": null, "slip_type": "Dextral", "strike_slip_rate": null, "upper_seis_depth": "(0.0,,)", "vert_sep_rate": null }, "geometry": { "type": "LineString", "coordinates": [ [ 26.139, 39.7089 ], [ 26.194701, 39.722835 ], [ 26.250402, 39.736769 ], [ 26.306123, 39.750709 ], [ 26.361844, 39.764648 ], [ 26.417586, 39.778593 ], [ 26.473328, 39.792538 ], [ 26.52909, 39.806488 ], [ 26.584852, 39.820438 ], [ 26.626539, 39.852145 ], [ 26.668225, 39.883852 ], [ 26.718764, 39.906798 ], [ 26.769303, 39.929745 ], [ 26.822187, 39.949392 ], [ 26.87507, 39.969038 ], [ 26.930317, 39.984456 ], [ 26.985564, 39.999874 ], [ 27.038368, 40.019731 ], [ 27.091172, 40.039588 ], [ 27.1755, 40.072 ] ] } },
{ "type": "Feature", "properties": { "accuracy": null, "activity_confidence": null, "average_dip": "(85.0,85.0,85.0)", "average_rake": "(180,180.0,180.0)", "catalog_id": "ME_TRCS028", "catalog_name": "EMME", "dip_dir": null, "downthrown_side_dir": null, "downthrown_side_id": null, "epistemic_quality": "1", "exposure_quality": null, "fs_name": null, "last_movement": null, "lower_seis_depth": "(18.0,,)", "name": null, "net_slip_rate": "(3.4,3.4,3.4)", "notes": null, "reference": null, "shortening_rate": null, "slip_type": "Dextral", "strike_slip_rate": null, "upper_seis_depth": "(0.0,,)", "vert_sep_rate": null }, "geometry": { "type": "LineString", "coordinates": [ [ 29.447457, 40.160877 ], [ 29.484755, 40.173017 ], [ 29.522053, 40.185158 ], [ 29.559351, 40.197298 ], [ 29.596184, 40.210274 ], [ 29.633016, 40.22325 ], [ 29.669849, 40.236226 ], [ 29.70493, 40.251807 ], [ 29.74001, 40.267387 ], [ 29.775091, 40.282968 ], [ 29.810215, 40.298524 ], [ 29.84534, 40.314079 ], [ 29.880464, 40.329635 ], [ 29.924709, 40.351971 ], [ 29.968954, 40.374307 ] ] } },
{ "type": "Feature", "properties": { "accuracy": null, "activity_confidence": null, "average_dip": "(50.0,50.0,50.0)", "average_rake": "(-104,-104.0,-104.0)", "catalog_id": "ME_TRCS029", "catalog_name": "EMME", "dip_dir": null, "downthrown_side_dir": null, "downthrown_side_id": null, "epistemic_quality": "1", "exposure_quality": null, "fs_name": null, "last_movement": null, "lower_seis_depth": "(18.0,,)", "name": null, "net_slip_rate": "None", "notes": null, "reference": null, "shortening_rate": null, "slip_type": "Normal", "strike_slip_rate": null, "upper_seis_depth": "(0.0,,)", "vert_sep_rate": null }, "geometry": { "type": "LineString", "coordinates": [ [ 29.21268, 40.170228 ], [ 29.168249, 40.170312 ], [ 29.123817, 40.170397 ], [ 29.079386, 40.170481 ], [ 29.034955, 40.170565 ], [ 28.990523, 40.17065 ], [ 28.946092, 40.170734 ], [ 28.901658, 40.170818 ], [ 28.857223, 40.170903 ], [ 28.812789, 40.170987 ] ] } },
{ "type": "Feature", "properties": { "accuracy": null, "activity_confidence": null, "average_dip": "(40.0,40.0,40.0)", "average_rake": "(-108,-108.0,-108.0)", "catalog_id": "ME_TRCS030", "catalog_name": "EMME", "dip_dir": null, "downthrown_side_dir": null, "downthrown_side_id": null, "epistemic_quality": "1", "exposure_quality": null, "fs_name": null, "last_movement": null, "lower_seis_depth": "(18.0,,)", "name": null, "net_slip_rate": "None", "notes": null, "reference": null, "shortening_rate": null, "slip_type": "Normal", "strike_slip_rate": null, "upper_seis_depth": "(1.0,,)", "vert_sep_rate": null }, "geometry": { "type": "LineString", "coordinates": [ [ 27.790159, 40.115418 ], [ 27.820272, 40.111046 ], [ 27.875743, 40.102991 ], [ 27.931202, 40.094939 ], [ 27.986661, 40.086886 ], [ 28.042292, 40.079618 ], [ 28.097923, 40.07235 ], [ 28.153098, 40.063315 ], [ 28.208273, 40.05428 ], [ 28.263434, 40.045247 ], [ 28.318595, 40.036214 ], [ 28.373598, 40.027207 ], [ 28.4286, 40.0182 ] ] } },
{ "type": "Feature", "properties": { "accuracy": null, "activity_confidence": null, "average_dip": "(68.0,60.0,76.0)", "average_rake": "(19,180.0,-142.0)", "catalog_id": "ME_TRCS031", "catalog_name": "EMME", "dip_dir": null, "downthrown_side_dir": null, "downthrown_side_id": null, "epistemic_quality": "1", "exposure_quality": null, "fs_name": null, "last_movement": null, "lower_seis_depth": "(18.0,,)", "name": null, "net_slip_rate": "(3.6,3.0,4.1306)", "notes": null, "reference": null, "shortening_rate": null, "slip_type": "Dextral", "strike_slip_rate": null, "upper_seis_depth": "(1.0,,)", "vert_sep_rate": null }, "geometry": { "type": "LineString", "coordinates": [ [ 27.04728, 39.87995 ], [ 27.105238, 39.890693 ], [ 27.163195, 39.901436 ], [ 27.222531, 39.906045 ], [ 27.281866, 39.910654 ], [ 27.332976, 39.934259 ], [ 27.384085, 39.957864 ], [ 27.435221, 39.981481 ], [ 27.486356, 40.005097 ], [ 27.530259, 40.03613 ], [ 27.574162, 40.067163 ], [ 27.631869, 40.079137 ], [ 27.689575, 40.091111 ], [ 27.738078, 40.101176 ], [ 27.763786, 40.113361 ], [ 27.780415, 40.117302 ] ] } },
{ "type": "Feature", "properties": { "accuracy": null, "activity_confidence": null, "average_dip": "(80.0,80.0,80.0)", "average_rake": "(180,180.0,180.0)", "catalog_id": "ME_TRCS032", "catalog_name": "EMME", "dip_dir": null, "downthrown_side_dir": null, "downthrown_side_id": null, "epistemic_quality": "1", "exposure_quality": null, "fs_name": null, "last_movement": null, "lower_seis_depth": "(18.0,,)", "name": null, "net_slip_rate": "(2.0,2.0,2.0)", "notes": null, "reference": null, "shortening_rate": null, "slip_type": "Dextral", "strike_slip_rate": null, "upper_seis_depth": "(1.0,,)", "vert_sep_rate": null }, "geometry": { "type": "LineString", "coordinates": [ [ 27.4576, 39.8971 ], [ 27.411085, 39.873682 ], [ 27.36457, 39.850263 ], [ 27.318077, 39.826856 ], [ 27.271584, 39.803448 ], [ 27.225113, 39.780052 ], [ 27.178642, 39.756656 ], [ 27.132194, 39.733271 ], [ 27.085745, 39.709886 ], [ 27.039319, 39.686512 ], [ 26.931661, 39.622815 ], [ 26.92086, 39.616424 ], [ 26.89310084056212, 39.6 ] ] } },
{ "type": "Feature", "properties": { "accuracy": null, "activity_confidence": null, "average_dip": "(60.0,60.0,60.0)", "average_rake": "(-134,-164.0,-105.0)", "catalog_id": "ME_TRCS033", "catalog_name": "EMME", "dip_dir": null, "downthrown_side_dir": null, "downthrown_side_id": null, "epistemic_quality": "1", "exposure_quality": null, "fs_name": null, "last_movement": null, "lower_seis_depth": "(18.0,,)", "name": null, "net_slip_rate": "(3.9,3.6638,4.1633)", "notes": null, "reference": null, "shortening_rate": null, "slip_type": "Dextral-Normal", "strike_slip_rate": null, "upper_seis_depth": "(1.0,,)", "vert_sep_rate": null }, "geometry": { "type": "LineString", "coordinates": [ [ 26.749745960077348, 39.6 ], [ 26.761756, 39.60347 ], [ 26.872464, 39.63618 ] ] } },
{ "type": "Feature", "properties": { "accuracy": null, "activity_confidence": null, "average_dip": "(85.0,85.0,85.0)", "average_rake": "(180,180.0,180.0)", "catalog_id": "ME_TRCS038", "catalog_name": "EMME", "dip_dir": null, "downthrown_side_dir": null, "downthrown_side_id": null, "epistemic_quality": "1", "exposure_quality": null, "fs_name": null, "last_movement": null, "lower_seis_depth": "(18.0,,)", "name": null, "net_slip_rate": "(5.3,5.3,5.3)", "notes": null, "reference": null, "shortening_rate": null, "slip_type": "Dextral", "strike_slip_rate": null, "upper_seis_depth": "(0.0,,)", "vert_sep_rate": null }, "geometry": { "type": "LineString", "coordinates": [ [ 29.215426, 40.403475 ], [ 29.164676, 40.394548 ], [ 29.113925, 40.385621 ], [ 29.063187, 40.376697 ], [ 29.01245, 40.367772 ], [ 28.961725, 40.35885 ], [ 28.911, 40.349927 ] ] } },
{ "type": "Feature", "properties": { "accuracy": null, "activity_confidence": null, "average_dip": "(85.0,85.0,85.0)", "average_rake": "(180,180.0,180.0)", "catalog_id": "ME_TRCS039", "catalog_name": "EMME", "dip_dir": null, "downthrown_side_dir": null, "downthrown_side_id": null, "epistemic_quality": "1", "exposure_quality": null, "fs_name": null, "last_movement": null, "lower_seis_depth": "(18.0,,)", "name": null, "net_slip_rate": "(3.4,3.4,3.4)", "notes": null, "reference": null, "shortening_rate": null, "slip_type": "Dextral", "strike_slip_rate": null, "upper_seis_depth": "(0.0,,)", "vert_sep_rate": null }, "geometry": { "type": "LineString", "coordinates": [ [ 29.586795, 40.314221 ], [ 29.536795, 40.290469 ], [ 29.486794, 40.266716 ], [ 29.436818, 40.242974 ], [ 29.386841, 40.219232 ] ] } },
{ "type": "Feature", "properties": { "accuracy": null, "activity_confidence": null, "average_dip": "(85.0,85.0,85.0)", "average_rake": "(180,180.0,180.0)", "catalog_id": "ME_TRCS040", "catalog_name": "EMME", "dip_dir": null, "downthrown_side_dir": null, "downthrown_side_id": null, "epistemic_quality": "1", "exposure_quality": null, "fs_name": null, "last_movement": null, "lower_seis_depth": "(18.0,,)", "name": null, "net_slip_rate": "(3.4,3.4,3.4)", "notes": null, "reference": null, "shortening_rate": null, "slip_type": "Dextral", "strike_slip_rate": null, "upper_seis_depth": "(0.0,,)", "vert_sep_rate": null }, "geometry": { "type": "LineString", "coordinates": [ [ 28.803114, 40.190994 ], [ 28.765251, 40.172123 ], [ 28.727388, 40.153252 ], [ 28.689525, 40.134381 ], [ 28.651684, 40.115521 ], [ 28.613843, 40.096662 ], [ 28.576002, 40.077802 ], [ 28.538182, 40.058952 ], [ 28.500363, 40.040103 ], [ 28.462543, 40.021253 ] ] } },
{ "type": "Feature", "properties": { "accuracy": null, "activity_confidence": null, "average_dip": "(50.0,50.0,50.0)", "average_rake": "(-111,-111.0,-111.0)", "catalog_id": "ME_TRCS041", "catalog_name": "EMME", "dip_dir": null, "downthrown_side_dir": null, "downthrown_side_id": null, "epistemic_quality": "1", "exposure_quality": null, "fs_name": null, "last_movement": null, "lower_seis_depth": "(18.0,,)", "name": null, "net_slip_rate": "None", "notes": null, "reference": null, "shortening_rate": null, "slip_type": "Normal", "strike_slip_rate": null, "upper_seis_depth": "(0.0,,)", "vert_sep_rate": null }, "geometry": { "type": "LineString", "coordinates": [ [ 29.431945, 40.192324 ], [ 29.38061, 40.197191 ], [ 29.329274, 40.202058 ], [ 29.27793, 40.206926 ], [ 29.226585, 40.211794 ] ] } },
{ "type": "Feature", "properties": { "accuracy": null, "activity_confidence": null, "average_dip": "(50.0,50.0,50.0)", "average_rake": "(-111,-111.0,-111.0)", "catalog_id": "ME_TRCS042", "catalog_name": "EMME", "dip_dir": null, "downthrown_side_dir": null, "downthrown_side_id": null, "epistemic_quality": "1", "exposure_quality": null, "fs_name": null, "last_movement": null, "lower_seis_depth": "(18.0,,)", "name": null, "net_slip_rate": "None", "notes": null, "reference": null, "shortening_rate": null, "slip_type": "Normal", "strike_slip_rate": null, "upper_seis_depth": "(0.0,,)", "vert_sep_rate": null }, "geometry": { "type": "LineString", "coordinates": [ [ 29.348241, 40.221132 ], [ 29.300641, 40.232921 ], [ 29.25304, 40.24471 ], [ 29.205424, 40.256503 ], [ 29.157808, 40.268295 ] ] } },
{ "type": "Feature", "properties": { "accuracy": null, "activity_confidence": null, "average_dip": "(80.0,80.0,80.0)", "average_rake": "(-161,-161.0,-161.0)", "catalog_id": "ME_TRCS044", "catalog_name": "EMME", "dip_dir": null, "downthrown_side_dir": null, "downthrown_side_id": null, "epistemic_quality": "1", "exposure_quality": null, "fs_name": null, "last_movement": null, "lower_seis_depth": "(18.0,,)", "name": null, "net_slip_rate": "None", "notes": null, "reference": null, "shortening_rate": null, "slip_type": "Dextral", "strike_slip_rate": null, "upper_seis_depth": "(0.0,,)", "vert_sep_rate": null }, "geometry": { "type": "LineString", "coordinates": [ [ 29.573587, 40.122883 ], [ 29.517912, 40.132037 ], [ 29.462237, 40.141191 ], [ 29.406548, 40.150347 ], [ 29.350858, 40.159504 ], [ 29.295151, 40.168663 ], [ 29.239443, 40.177823 ] ] } },
{ "type": "Feature", "properties": { "accuracy": null, "activity_confidence": null, "average_dip": "(70.0,70.0,70.0)", "average_rake": "(-146,-146.0,-146.0)", "catalog_id": "ME_TRCS195", "catalog_name": "EMME", "dip_dir": null, "downthrown_side_dir": null, "downthrown_side_id": null, "epistemic_quality": "1", "exposure_quality": null, "fs_name": null, "last_movement": null, "lower_seis_depth": "(15.0,,)", "name": null, "net_slip_rate": "(1.6,0.0001,3.1832)", "notes": null, "reference": null, "shortening_rate": null, "slip_type": "Dextral-Normal", "strike_slip_rate": null, "upper_seis_depth": "(1.0,,)", "vert_sep_rate": null }, "geometry": { "type": "LineString", "coordinates": [ [ 30.842699, 39.707609 ], [ 30.9, 39.690704408354932 ] ] } },
{ "type": "Feature", "properties": { "accuracy": null, "activity_confidence": null, "average_dip": "(65.0,60.0,70.0)", "average_rake": "(-138,-146.0,-130.0)", "catalog_id": "ME_TRCS197", "catalog_name": "EMME", "dip_dir": null, "downthrown_side_dir": null, "downthrown_side_id": null, "epistemic_quality": "1", "exposure_quality": null, "fs_name": null, "last_movement": null, "lower_seis_depth": "(15.0,,)", "name": null, "net_slip_rate": "(1.6,0.0001,3.1832)", "notes": null, "reference": null, "shortening_rate": null, "slip_type": "Dextral-Normal", "strike_slip_rate": null, "upper_seis_depth": "(0.0,,)", "vert_sep_rate": null }, "geometry": { "type": "LineString", "coordinates": [ [ 30.737855, 39.8636 ], [ 30.775923, 39.877928 ], [ 30.813992, 39.892256 ], [ 30.85206, 39.906584 ], [ 30.892375, 39.916713 ], [ 30.9, 39.918628895674175 ] ] } },
{ "type": "Feature", "properties": { "accuracy": null, "activity_confidence": null, "average_dip": "(56.0,56.0,56.0)", "average_rake": "(-137,-145.0,-130.0)", "catalog_id": "ME_TRCS198", "catalog_name": "EMME", "dip_dir": null, "downthrown_side_dir": null, "downthrown_side_id": null, "epistemic_quality": "1", "exposure_quality": null, "fs_name": null, "last_movement": null, "lower_seis_depth": "(15.0,,)", "name": null, "net_slip_rate": "(1.6,0.0001,3.2334)", "notes": null, "reference": null, "shortening_rate": null, "slip_type": "Dextral-Normal", "strike_slip_rate": null, "upper_seis_depth": "(0.0,,)", "vert_sep_rate": null }, "geometry": { "type": "LineString", "coordinates": [ [ 30.340215, 39.850701 ], [ 30.383826, 39.859338 ], [ 30.427437, 39.867975 ], [ 30.471048, 39.876612 ], [ 30.514783, 39.868351 ], [ 30.558519, 39.86009 ], [ 30.602254, 39.851829 ], [ 30.643922, 39.840323 ], [ 30.68559, 39.828816 ], [ 30.727258, 39.81731 ] ] } },
{ "type": "Feature", "properties": { "accuracy": null, "activity_confidence": null, "average_dip": "(70.0,70.0,70.0)", "average_rake": "(-146,-146.0,-146.0)", "catalog_id": "ME_TRCS199", "catalog_name": "EMME", "dip_dir": null, "downthrown_side_dir": null, "downthrown_side_id": null, "epistemic_quality": "1", "exposure_quality": null, "fs_name": null, "last_movement": null, "lower_seis_depth": "(15.0,,)", "name": null, "net_slip_rate": "(1.6,0.0001,3.1832)", "notes": null, "reference": null, "shortening_rate": null, "slip_type": "Dextral-Normal", "strike_slip_rate": null, "upper_seis_depth": "(0.0,,)", "vert_sep_rate": null }, "geometry": { "type": "LineString", "coordinates": [ [ 30.224873, 39.807559 ], [ 30.273911, 39.792379 ], [ 30.322949, 39.777199 ], [ 30.371968, 39.762025 ], [ 30.420987, 39.746851 ], [ 30.472869, 39.739205 ], [ 30.524751, 39.731559 ], [ 30.573611, 39.716149 ], [ 30.622471, 39.700738 ], [ 30.667482, 39.68452 ], [ 30.712493, 39.668302 ] ] } },
{ "type": "Feature", "properties": { "accuracy": null, "activity_confidence": null, "average_dip": "(70.0,70.0,70.0)", "average_rake": "(-146,-146.0,-146.0)", "catalog_id": "ME_TRCS200", "catalog_name": "EMME", "dip_dir": null, "downthrown_side_dir": null, "downthrown_side_id": null, "epistemic_quality": "1", "exposure_quality": null, "fs_name": null, "last_movement": null, "lower_seis_depth": "(15.0,,)", "name": null, "net_slip_rate": "(1.6,0.0001,3.1832)", "notes": null, "reference": null, "shortening_rate": null, "slip_type": "Dextral-Normal", "strike_slip_rate": null, "upper_seis_depth": "(0.0,,)", "vert_sep_rate": null }, "geometry": { "type": "LineString", "coordinates": [ [ 30.303447, 39.860241 ], [ 30.249472, 39.869705 ], [ 30.195496, 39.879168 ], [ 30.141507, 39.888634 ], [ 30.087517, 39.898101 ], [ 30.03351, 39.90757 ], [ 29.979502, 39.917039 ] ] } },
{ "type": "Feature", "properties": { "accuracy": null, "activity_confidence": null, "average_dip": "(72.5,70.0,75.0)", "average_rake": "(-144,-146.0,-142.0)", "catalog_id": "ME_TRCS202", "catalog_name": "EMME", "dip_dir": null, "downthrown_side_dir": null, "downthrown_side_id": null, "epistemic_quality": "1", "exposure_quality": null, "fs_name": null, "last_movement": null, "lower_seis_depth": "(13.0,,)", "name": null, "net_slip_rate": "(1.6,0.0001,3.1736)", "notes": null, "reference": null, "shortening_rate": null, "slip_type": "Dextral-Normal", "strike_slip_rate": null, "upper_seis_depth": "(0.0,,)", "vert_sep_rate": null }, "geometry": { "type": "LineString", "coordinates": [ [ 29.217282, 40.16646 ], [ 29.270271, 40.150127 ], [ 29.32326, 40.133793 ], [ 29.370416, 40.109168 ], [ 29.417571, 40.084542 ], [ 29.460192, 40.05551 ], [ 29.502813, 40.026477 ], [ 29.552297, 40.004788 ], [ 29.601781, 39.983098 ], [ 29.648972, 39.958628 ], [ 29.696162, 39.934157 ], [ 29.749669, 39.919216 ], [ 29.803175, 39.904275 ], [ 29.859096, 39.896123 ], [ 29.915017, 39.88797 ], [ 29.968942, 39.874027 ], [ 30.022866, 39.860083 ], [ 30.06152, 39.854308 ] ] } },
{ "type": "Feature", "properties": { "accuracy": null, "activity_confidence": null, "average_dip": "(70.0,70.0,70.0)", "average_rake": "(180,180.0,180.0)", "catalog_id": "ME_TRCS233", "catalog_name": "EMME", "dip_dir": null, "downthrown_side_dir": null, "downthrown_side_id": null, "epistemic_quality": "1", "exposure_quality": null, "fs_name": null, "last_movement": null, "lower_seis_depth": "(15.0,,)", "name": null, "net_slip_rate": "(2.0,2.0,2.0)", "notes": null, "reference": null, "shortening_rate": null, "slip_type": "Dextral", "strike_slip_rate": null, "upper_seis_depth": "(1.0,,)", "vert_sep_rate": null }, "geometry": { "type": "LineString", "coordinates": [ [ 28.374863, 39.81843 ], [ 28.3253, 39.791081 ], [ 28.275736, 39.763732 ], [ 28.226198, 39.736397 ], [ 28.17666, 39.709063 ], [ 28.127148, 39.681743 ], [ 28.077637, 39.654422 ], [ 28.028151, 39.627116 ], [ 27.979009332381167, 39.6 ] ] } },
{ "type": "Feature", "properties": { "accuracy": null, "activity_confidence": null, "average_dip": "(70.0,70.0,70.0)", "average_rake": "(-166,-166.0,-166.0)", "catalog_id": "ME_TRCS234", "catalog_name": "EMME", "dip_dir": null, "downthrown_side_dir": null, "downthrown_side_id": null, "epistemic_quality": "1", "exposure_quality": null, "fs_name": null, "last_movement": null, "lower_seis_depth": "(15.0,,)", "name": null, "net_slip_rate": "(2.1,2.0,2.2655)", "notes": null, "reference": null, "shortening_rate": null, "slip_type": "Dextral", "strike_slip_rate": null, "upper_seis_depth": "(1.0,,)", "vert_sep_rate": null }, "geometry": { "type": "LineString", "coordinates": [ [ 27.543105, 39.616842 ], [ 27.597139, 39.618182 ], [ 27.651172, 39.619521 ], [ 27.705208, 39.62086 ], [ 27.759243, 39.622199 ], [ 27.813283, 39.623539 ], [ 27.867323, 39.624878 ] ] } },
{ "type": "Feature", "properties": { "accuracy": null, "activity_confidence": null, "average_dip": "(64.0,64.0,64.0)", "average_rake": "(-130,-130.0,-130.0)", "catalog_id": "ME_TRCS311", "catalog_name": "EMME", "dip_dir": null, "downthrown_side_dir": null, "downthrown_side_id": null, "epistemic_quality": "1", "exposure_quality": null, "fs_name": null, "last_movement": null, "lower_seis_depth": "(15.0,,)", "name": null, "net_slip_rate": "(1.3,0.0001,2.6836)", "notes": null, "reference": null, "shortening_rate": null, "slip_type": "Dextral-Normal", "strike_slip_rate": null, "upper_seis_depth": "(1.0,,)", "vert_sep_rate": null }, "geometry": { "type": "LineString", "coordinates": [ [ 28.218619, 39.672874 ], [ 28.333953, 39.66408 ], [ 28.449272, 39.655287 ], [ 28.564576, 39.646495 ], [ 28.679866, 39.637704 ], [ 28.795141, 39.628914 ], [ 28.910402, 39.620125 ], [ 28.993210098591533, 39.6 ] ] } },
{ "type": "Feature", "properties": { "accuracy": null, "activity_confidence": null, "average_dip": "(34.0,30.0,38.0)", "average_rake": "(90,90.0,90.0)", "catalog_id": "ME_TRCS407", "catalog_name": "EMME", "dip_dir": null, "downthrown_side_dir": null, "downthrown_side_id": null, "epistemic_quality": "1", "exposure_quality": null, "fs_name": null, "last_movement": null, "lower_seis_depth": "(16.0,,)", "name": null, "net_slip_rate": "(1.0,0.0001,2.0)", "notes": null, "reference": null, "shortening_rate": null, "slip_type": "Reverse", "strike_slip_rate": null, "upper_seis_depth": "(1.5,,)", "vert_sep_rate": null }, "geometry": { "type": "LineString", "coordinates": [ [ 28.5069, 41.53188 ], [ 28.626373, 41.52755 ], [ 28.745838, 41.52322 ], [ 28.865295, 41.51889 ], [ 28.984744, 41.514561 ], [ 29.104185, 41.510232 ], [ 29.223618, 41.505904 ], [ 29.343043, 41.501575 ], [ 29.46244, 41.496905 ], [ 29.581828, 41.492233 ], [ 29.701208, 41.487561 ], [ 29.820579, 41.482889 ], [ 29.939941, 41.478218 ], [ 30.059295, 41.473547 ], [ 30.17864, 41.468877 ], [ 30.2934, 41.493904 ], [ 30.408859, 41.517184 ], [ 30.524356, 41.540472 ], [ 30.639877, 41.563807 ], [ 30.755271, 41.587598 ], [ 30.870704, 41.611398 ], [ 30.9, 41.617438192668416 ] ] } },
{ "type": "Feature", "properties": { "accuracy": null, "activity_confidence": null, "average_dip": "(85.0,85.0,85.0)", "average_rake": "(180,180.0,180.0)", "catalog_id": "ME_TRCS417", "catalog_name": "EMME", "dip_dir": null, "downthrown_side_dir": null, "downthrown_side_id": null, "epistemic_quality": "1", "exposure_quality": null, "fs_name": null, "last_movement": null, "lower_seis_depth": "(18.0,,)", "name": null, "net_slip_rate": "(3.0,3.0,3.0)", "notes": null, "reference": null, "shortening_rate": null, "slip_type": "Dextral", "strike_slip_rate": null, "upper_seis_depth": "(1.0,,)", "vert_sep_rate": null }, "geometry": { "type": "LineString", "coordinates": [ [ 27.10363, 39.93501 ], [ 27.062686, 39.906604 ], [ 27.021741, 39.878198 ], [ 26.980815, 39.849805 ], [ 26.939888, 39.821412 ], [ 26.898979, 39.793031 ], [ 26.85807, 39.76465 ] ] } },
{ "type": "Feature", "properties": { "accuracy": null, "activity_confidence": null, "average_dip": "(85.0,85.0,85.0)", "average_rake": "(180,180.0,180.0)", "catalog_id": "ME_TRCS418", "catalog_name": "EMME", "dip_dir": null, "downthrown_side_dir": null, "downthrown_side_id": null, "epistemic_quality": "1", "exposure_quality": null, "fs_name": null, "last_movement": null, "lower_seis_depth": "(16.0,,)", "name": null, "net_slip_rate": "(0.5,0.0001,1.0)", "notes": null, "reference": null, "shortening_rate": null, "slip_type": "Dextral", "strike_slip_rate": null, "upper_seis_depth": "(0.0,,)", "vert_sep_rate": null }, "geometry": { "type": "LineString", "coordinates": [ [ 28.367235341854936, 41.9 ], [ 28.375279, 41.877822 ], [ 28.406999, 41.790367 ], [ 28.438716, 41.70292 ], [ 28.470429, 41.615481 ], [ 28.50214, 41.528051 ], [ 28.533848, 41.440629 ], [ 28.565552, 41.353215 ], [ 28.597254, 41.265809 ], [ 28.628953, 41.178412 ], [ 28.66066, 41.09099 ] ] } },
{ "type": "Feature", "properties": { "accuracy": null, "activity_confidence": null, "average_dip": "(65.0,50.0,80.0)", "average_rake": "(-90,-100.0,-80.0)", "catalog_id": "ME_TRCS901", "catalog_name": "EMME", "dip_dir": null, "downthrown_side_dir": null, "downthrown_side_id": null, "epistemic_quality": "1", "exposure_quality": null, "fs_name": null, "last_movement": null, "lower_seis_depth": "(15.0,,)", "name": null, "net_slip_rate": "(0.9,0.6,1.1)", "notes": null, "reference": null, "shortening_rate": null, "slip_type": "Normal", "strike_slip_rate": null, "upper_seis_depth": "(0.0,,)", "vert_sep_rate": null }, "geometry": { "type": "LineString", "coordinates": [ [ 26.169011, 39.962305 ], [ 26.180137, 39.960416 ], [ 26.205997, 39.958764 ], [ 26.225048, 39.958853 ], [ 26.239977, 39.959472 ], [ 26.253208, 39.961597 ], [ 26.274558, 39.965137 ], [ 26.295908, 39.968678 ], [ 26.318461, 39.968914 ], [ 26.334398, 39.971274 ], [ 26.351237, 39.977175 ], [ 26.365818, 39.98787 ], [ 26.377766, 39.990508 ], [ 26.405771, 40.000766 ], [ 26.418467, 40.002232 ], [ 26.433029, 40.010732 ] ] } },
{ "type": "Feature", "properties": { "accuracy": null, "activity_confidence": null, "average_dip": "(72.5,55.0,90.0)", "average_rake": "(22,180.0,-135.0)", "catalog_id": "ME_TRCS996", "catalog_name": "EMME", "dip_dir": null, "downthrown_side_dir": null, "downthrown_side_id": null, "epistemic_quality": "1", "exposure_quality": null, "fs_name": null, "last_movement": null, "lower_seis_depth": "(19.0,,)", "name": null, "net_slip_rate": "(21.9,15.0,28.8881)", "notes": null, "reference": null, "shortening_rate": null, "slip_type": "Dextral-Normal", "strike_slip_rate": null, "upper_seis_depth": "(0.0,,)", "vert_sep_rate": null }, "geometry": { "type": "LineString", "coordinates": [ [ 25.6, 40.151190066779016 ], [ 25.628512, 40.161581 ], [ 25.773818, 40.212031 ], [ 25.926659, 40.247307 ], [ 26.085589, 40.272354 ], [ 26.200499, 40.315794 ], [ 26.321028, 40.371284 ], [ 26.488272, 40.451043 ], [ 26.585053, 40.491599 ], [ 26.681833, 40.532155 ], [ 26.84888, 40.595414 ], [ 26.900067, 40.616927 ], [ 26.987711, 40.655205 ], [ 27.067007, 40.682895 ], [ 27.136914, 40.699998 ], [ 27.20682, 40.715472 ], [ 27.336198, 40.75212 ], [ 27.424327, 40.777384 ], [ 27.501385, 40.79608 ], [ 27.575641, 40.803779 ], [ 27.710143, 40.808178 ], [ 27.881072, 40.811477 ], [ 28.026022, 40.80224 ] ] } },
{ "type": "Feature", "properties": { "accuracy": null, "activity_confidence": null, "average_dip": "(45.0,35,55)", "average_rake": "(-65,-80,-50)", "catalog_id": "EUR_BGCS001", "catalog_name": "SHARE", "dip_dir": null, "downthrown_side_dir": null, "downthrown_side_id": null, "epistemic_quality": null, "exposure_quality": null, "fs_name": null, "last_movement": null, "lower_seis_depth": "(15.0,,)", "name": null, "net_slip_rate": "(0.2,0.1,0.4)", "notes": null, "reference": null, "shortening_rate": null, "slip_type": "Sinistral-Normal", "strike_slip_rate": null, "upper_seis_depth": "(0.0,,)", "vert_sep_rate": null }, "geometry": { "type": "LineString", "coordinates": [ [ 26.133505703212801, 41.9 ], [ 26.234177, 41.8739 ], [ 26.347992, 41.844493 ] ] } },
{ "type": "Feature", "properties": { "accuracy": null, "activity_confidence": null, "average_dip": "(47.5,40,55)", "average_rake": "(-75,-90,-60)", "catalog_id": "EUR_BGCS006", "catalog_name": "SHARE", "dip_dir": null, "downthrown_side_dir": null, "downthrown_side_id": null, "epistemic_quality": null, "exposure_quality": null, "fs_name": null, "last_movement": null, "lower_seis_depth": "(15.0,,)", "name": null, "net_slip_rate": "(0.2,0.1,0.4)", "notes": null, "reference": null, "shortening_rate": null, "slip_type": "Normal", "strike_slip_rate": null, "upper_seis_depth": "(1.0,,)", "vert_sep_rate": null }, "geometry": { "type": "LineString", "coordinates": [ [ 25.6, 41.818278872475972 ], [ 25.646065, 41.801502 ], [ 25.68577, 41.783446 ], [ 25.725474, 41.76539 ], [ 25.782929, 41.751539 ], [ 25.839195, 41.743472 ], [ 25.911091, 41.746929 ], [ 25.970481, 41.748081 ], [ 26.018933, 41.745777 ], [ 26.081451, 41.735404 ], [ 26.123651, 41.72388 ], [ 26.176791, 41.711203 ] ] } },
{ "type": "Feature", "properties": { "accuracy": null, "activity_confidence": null, "average_dip": "(62.5,50,75)", "average_rake": "(-80,-90,-70)", "catalog_id": "EUR_BGCS007", "catalog_name": "SHARE", "dip_dir": null, "downthrown_side_dir": null, "downthrown_side_id": null, "epistemic_quality": null, "exposure_quality": null, "fs_name": null, "last_movement": null, "lower_seis_depth": "(15.0,,)", "name": null, "net_slip_rate": "(0.2,0.1,0.4)", "notes": null, "reference": null, "shortening_rate": null, "slip_type": "Normal", "strike_slip_rate": null, "upper_seis_depth": "(1.0,,)", "vert_sep_rate": null }, "geometry": { "type": "LineString", "coordinates": [ [ 26.522568895260317, 41.9 ], [ 26.540305, 41.883137 ], [ 26.566001, 41.858706 ], [ 26.591698, 41.834274 ] ] } },
{ "type": "Feature", "properties": { "accuracy": null, "activity_confidence": null, "average_dip": "(55.0,35,75)", "average_rake": "(-115,-160,-70)", "catalog_id": "EUR_GRCS150", "catalog_name": "SHARE", "dip_dir": null, "downthrown_side_dir": null, "downthrown_side_id": null, "epistemic_quality": null, "exposure_quality": null, "fs_name": null, "last_movement": null, "lower_seis_depth": "(14.0,,)", "name": null, "net_slip_rate": "(0.3,0.2,0.5)", "notes": null, "reference": null, "shortening_rate": null, "slip_type": "Dextral-Normal", "strike_slip_rate": null, "upper_seis_depth": "(0.0,,)", "vert_sep_rate": null }, "geometry": { "type": "LineString", "coordinates": [ [ 25.826633, 41.086023 ], [ 25.786962, 41.091728 ], [ 25.743292, 41.1 ], [ 25.689884, 41.112959 ], [ 25.644498, 41.125049 ], [ 25.603306, 41.134447 ], [ 25.6, 41.135198090316806 ] ] } },
{ "type": "Feature", "properties": { "accuracy": null, "activity_confidence": null, "average_dip": "(60.0,45,75)", "average_rake": "(-105,-130,-80)", "catalog_id": "EUR_GRCS160", "catalog_name": "SHARE", "dip_dir": null, "downthrown_side_dir": null, "downthrown_side_id": null, "epistemic_quality": null, "exposure_quality": null, "fs_name": null, "last_movement": null, "lower_seis_depth": "(14.0,,)", "name": null, "net_slip_rate": "(0.6,0.4,0.7)", "notes": null, "reference": null, "shortening_rate": null, "slip_type": "Normal", "strike_slip_rate": null, "upper_seis_depth": "(0.0,,)", "vert_sep_rate": null }, "geometry": { "type": "LineString", "coordinates": [ [ 25.6, 40.864541735761129 ], [ 25.605403, 40.864925 ], [ 25.632694, 40.862169 ], [ 25.664393, 40.855469 ], [ 25.703369, 40.847658 ], [ 25.732671, 40.847154 ], [ 25.772571, 40.849996 ], [ 25.795541, 40.850947 ], [ 25.818977, 40.851089 ], [ 25.848035, 40.85087 ], [ 25.872755, 40.851635 ], [ 25.898921, 40.851299 ], [ 25.93882, 40.849945 ], [ 25.977563, 40.847237 ], [ 26.009367, 40.847237 ], [ 26.043484, 40.846334 ], [ 26.075288, 40.845883 ], [ 26.129644, 40.847688 ] ] } },
{ "type": "Feature", "properties": { "accuracy": null, "activity_confidence": null, "average_dip": "(62.5,45,80)", "average_rake": "(-105,-120,-90)", "catalog_id": "EUR_GRCS170", "catalog_name": "SHARE", "dip_dir": null, "downthrown_side_dir": null, "downthrown_side_id": null, "epistemic_quality": null, "exposure_quality": null, "fs_name": null, "last_movement": null, "lower_seis_depth": "(14.0,,)", "name": null, "net_slip_rate": "(0.3,0.3,0.3)", "notes": null, "reference": null, "shortening_rate": null, "slip_type": "Normal", "strike_slip_rate": null, "upper_seis_depth": "(0.0,,)", "vert_sep_rate": null }, "geometry": { "type": "LineString", "coordinates": [ [ 26.574329, 41.619393 ], [ 26.515996, 41.610655 ], [ 26.481553, 41.604809 ], [ 26.447109, 41.598963 ], [ 26.40708, 41.592752 ], [ 26.367051, 41.586541 ], [ 26.328418, 41.58033 ], [ 26.289786, 41.574118 ], [ 26.238586, 41.566811 ], [ 26.208797, 41.559869 ], [ 26.165257, 41.551238 ], [ 26.121717, 41.542607 ] ] } },
{ "type": "Feature", "properties": { "accuracy": null, "activity_confidence": null, "average_dip": "(60.0,45,75)", "average_rake": "(-105,-120,-90)", "catalog_id": "EUR_GRCS288", "catalog_name": "SHARE", "dip_dir": null, "downthrown_side_dir": null, "downthrown_side_id": null, "epistemic_quality": null, "exposure_quality": null, "fs_name": null, "last_movement": null, "lower_seis_depth": "(13.0,,)", "name": null, "net_slip_rate": "(0.6,0.1,1.0)", "notes": null, "reference": null, "shortening_rate": null, "slip_type": "Normal", "strike_slip_rate": null, "upper_seis_depth": "(0.0,,)", "vert_sep_rate": null }, "geometry": { "type": "LineString", "coordinates": [ [ 25.78977, 40.44605 ], [ 25.754833, 40.453726 ], [ 25.719895, 40.461401 ], [ 25.667735, 40.473573 ], [ 25.615575, 40.485746 ], [ 25.6, 40.489201026485624 ] ] } },
{ "type": "Feature", "properties": { "accuracy": null, "activity_confidence": null, "average_dip": "(75.0,60,90)", "average_rake": "(22,180,-135)", "catalog_id": "EUR_GRCS290", "catalog_name": "SHARE", "dip_dir": null, "downthrown_side_dir": null, "downthrown_side_id": null, "epistemic_quality": null, "exposure_quality": null, "fs_name": null, "last_movement": null, "lower_seis_depth": "(19.0,,)", "name": null, "net_slip_rate": "(2.6,2.0,3.2)", "notes": null, "reference": null, "shortening_rate": null, "slip_type": "Sinistral", "strike_slip_rate": null, "upper_seis_depth": "(0.0,,)", "vert_sep_rate": null }, "geometry": { "type": "LineString", "coordinates": [ [ 26.608157, 40.578963 ], [ 26.551118, 40.574022 ], [ 26.506012, 40.568668 ], [ 26.454762, 40.560078 ], [ 26.409486, 40.551278 ], [ 26.349197, 40.540655 ], [ 26.291971, 40.526886 ], [ 26.241925, 40.511777 ], [ 26.161391, 40.483999 ], [ 26.078779, 40.461778 ], [ 25.976645, 40.4491 ], [ 25.885064, 40.441799 ], [ 25.793483, 40.432251 ], [ 25.716211, 40.415403 ], [ 25.642517, 40.395184 ], [ 25.6, 40.381878563341459 ] ] } },
{ "type": "Feature", "properties": { "accuracy": null, "activity_confidence": null, "average_dip": "(89.0,89,89)", "average_rake": "(8,180,-163)", "catalog_id": "EUR_TRCS009", "catalog_name": "SHARE", "dip_dir": null, "downthrown_side_dir": null, "downthrown_side_id": null, "epistemic_quality": null, "exposure_quality": null, "fs_name": null, "last_movement": null, "lower_seis_depth": "(18.0,,)", "name": null, "net_slip_rate": "(12.6,12.0,13.1899)", "notes": null, "reference": null, "shortening_rate": null, "slip_type": "Sinistral", "strike_slip_rate": null, "upper_seis_depth": "(0.0,,)", "vert_sep_rate": null }, "geometry": { "type": "LineString", "coordinates": [ [ 30.9, 40.571691246490758 ], [ 30.894545, 40.571544 ], [ 30.772579, 40.577053 ], [ 30.654101, 40.599809 ], [ 30.535585, 40.622571 ], [ 30.417031, 40.645341 ] ] } },
{ "type": "Feature", "properties": { "accuracy": null, "activity_confidence": null, "average_dip": "(84.0,83,85)", "average_rake": "(26,180,-127)", "catalog_id": "EUR_TRCS012", "catalog_name": "SHARE", "dip_dir": null, "downthrown_side_dir": null, "downthrown_side_id": null, "epistemic_quality": null, "exposure_quality": null, "fs_name": null, "last_movement": null, "lower_seis_depth": "(18.0,,)", "name": null, "net_slip_rate": "(10.7,1.4195,20.0489)", "notes": null, "reference": null, "shortening_rate": null, "slip_type": "Sinistral-Reverse", "strike_slip_rate": null, "upper_seis_depth": "(0.0,,)", "vert_sep_rate": null }, "geometry": { "type": "LineString", "coordinates": [ [ 30.9, 40.755198610863758 ], [ 30.836032, 40.733514 ], [ 30.728272, 40.696986 ], [ 30.611161, 40.685999 ], [ 30.497906, 40.711151 ], [ 30.379942, 40.714397 ], [ 30.262779, 40.725372 ], [ 30.144715, 40.725274 ], [ 30.026666, 40.723943 ], [ 29.909753, 40.71155 ], [ 29.791993, 40.705459 ], [ 29.681251, 40.736457 ], [ 29.563603, 40.72884 ], [ 29.44555, 40.72737 ], [ 29.3275, 40.7259 ] ] } },
{ "type": "Feature", "properties": { "accuracy": null, "activity_confidence": null, "average_dip": "(56.5,35,78)", "average_rake": "(12,180,-156)", "catalog_id": "EUR_TRCS013", "catalog_name": "SHARE", "dip_dir": null, "downthrown_side_dir": null, "downthrown_side_id": null, "epistemic_quality": null, "exposure_quality": null, "fs_name": null, "last_movement": null, "lower_seis_depth": "(15.0,,)", "name": null, "net_slip_rate": "(27.0,26.1806,27.9)", "notes": null, "reference": null, "shortening_rate": null, "slip_type": "Sinistral", "strike_slip_rate": null, "upper_seis_depth": "(0.5,,)", "vert_sep_rate": null }, "geometry": { "type": "LineString", "coordinates": [ [ 29.2279, 40.7157 ], [ 29.127861, 40.760853 ], [ 29.02125, 40.808972 ], [ 28.914582, 40.857118 ], [ 28.7926, 40.875073 ], [ 28.668554, 40.869343 ], [ 28.544518, 40.863614 ], [ 28.421145, 40.852448 ], [ 28.298014, 40.839979 ], [ 28.177022, 40.818754 ], [ 28.0563, 40.7968 ] ] } },
{ "type": "Feature", "properties": { "accuracy": null, "activity_confidence": null, "average_dip": "(62.0,58,66)", "average_rake": "(-156,-171,-142)", "catalog_id": "EUR_TRCS014", "catalog_name": "SHARE", "dip_dir": null, "downthrown_side_dir": null, "downthrown_side_id": null, "epistemic_quality": null, "exposure_quality": null, "fs_name": null, "last_movement": null, "lower_seis_depth": "(18.0,,)", "name": null, "net_slip_rate": "(8.9,7.632,10.1339)", "notes": null, "reference": null, "shortening_rate": null, "slip_type": "Dextral-Normal", "strike_slip_rate": null, "upper_seis_depth": "(0.0,,)", "vert_sep_rate": null }, "geometry": { "type": "LineString", "coordinates": [ [ 29.4575, 40.7157 ], [ 29.382739, 40.704215 ], [ 29.271229, 40.687084 ], [ 29.159184, 40.672196 ], [ 29.04734, 40.656579 ], [ 28.934885, 40.643852 ], [ 28.861882, 40.710007 ], [ 28.7511, 40.7298 ] ] } },
{ "type": "Feature", "properties": { "accuracy": null, "activity_confidence": null, "average_dip": "(85.0,80,90)", "average_rake": "(-146,-166,-126)", "catalog_id": "EUR_TRCS015", "catalog_name": "SHARE", "dip_dir": null, "downthrown_side_dir": null, "downthrown_side_id": null, "epistemic_quality": null, "exposure_quality": null, "fs_name": null, "last_movement": null, "lower_seis_depth": "(18.0,,)", "name": null, "net_slip_rate": "(3.1,1.0,5.2941)", "notes": null, "reference": null, "shortening_rate": null, "slip_type": "Dextral-Normal", "strike_slip_rate": null, "upper_seis_depth": "(0.0,,)", "vert_sep_rate": null }, "geometry": { "type": "LineString", "coordinates": [ [ 29.0356, 40.6454 ], [ 28.936444, 40.610345 ], [ 28.82514, 40.570995 ], [ 28.713889, 40.531665 ], [ 28.595546, 40.556254 ], [ 28.495651, 40.61044 ], [ 28.395702, 40.664655 ], [ 28.2957, 40.7189 ] ] } },
{ "type": "Feature", "properties": { "accuracy": null, "activity_confidence": null, "average_dip": "(70.0,70,70)", "average_rake": "(-143,-147,-140)", "catalog_id": "EUR_TRCS018", "catalog_name": "SHARE", "dip_dir": null, "downthrown_side_dir": null, "downthrown_side_id": null, "epistemic_quality": null, "exposure_quality": null, "fs_name": null, "last_movement": null, "lower_seis_depth": "(18.0,,)", "name": null, "net_slip_rate": "(26.8,26.2662,27.4037)", "notes": null, "reference": null, "shortening_rate": null, "slip_type": "Dextral-Normal", "strike_slip_rate": null, "upper_seis_depth": "(0.5,,)", "vert_sep_rate": null }, "geometry": { "type": "LineString", "coordinates": [ [ 26.124159, 40.466192 ], [ 26.029838, 40.424681 ], [ 25.932812, 40.38198 ], [ 25.859048, 40.317778 ], [ 25.800556, 40.245041 ] ] } },
{ "type": "Feature", "properties": { "accuracy": null, "activity_confidence": null, "average_dip": "(70.0,70,70)", "average_rake": "(-174,-174,-174)", "catalog_id": "EUR_TRCS019", "catalog_name": "SHARE", "dip_dir": null, "downthrown_side_dir": null, "downthrown_side_id": null, "epistemic_quality": null, "exposure_quality": null, "fs_name": null, "last_movement": null, "lower_seis_depth": "(18.0,,)", "name": null, "net_slip_rate": "None", "notes": null, "reference": null, "shortening_rate": null, "slip_type": "Dextral", "strike_slip_rate": null, "upper_seis_depth": "(0.5,,)", "vert_sep_rate": null }, "geometry": { "type": "LineString", "coordinates": [ [ 25.782, 40.2861 ], [ 25.674394, 40.259333 ], [ 25.6, 40.24082787139843 ] ] } },
{ "type": "Feature", "properties": { "accuracy": null, "activity_confidence": null, "average_dip": "(75.0,65,85)", "average_rake": "(17,180,-145)", "catalog_id": "EUR_TRCS022", "catalog_name": "SHARE", "dip_dir": null, "downthrown_side_dir": null, "downthrown_side_id": null, "epistemic_quality": null, "exposure_quality": null, "fs_name": null, "last_movement": null, "lower_seis_depth": "(18.0,,)", "name": null, "net_slip_rate": "(6.4,4.8589,8.0)", "notes": null, "reference": null, "shortening_rate": null, "slip_type": "Sinistral", "strike_slip_rate": null, "upper_seis_depth": "(0.0,,)", "vert_sep_rate": null }, "geometry": { "type": "LineString", "coordinates": [ [ 30.677867, 40.559991 ], [ 30.574613, 40.540718 ], [ 30.45852, 40.519048 ], [ 30.342462, 40.497385 ], [ 30.226439, 40.475729 ], [ 30.114548, 40.443985 ], [ 29.996691, 40.42953 ], [ 29.878859, 40.415078 ], [ 29.760863, 40.401554 ], [ 29.642851, 40.388236 ], [ 29.523769, 40.382936 ], [ 29.40615, 40.398109 ], [ 29.288836, 40.414705 ], [ 29.169665, 40.419589 ], [ 29.050486, 40.424473 ] ] } },
{ "type": "Feature", "properties": { "accuracy": null, "activity_confidence": null, "average_dip": "(85.0,85,85)", "average_rake": "(17,180,-146)", "catalog_id": "EUR_TRCS023", "catalog_name": "SHARE", "dip_dir": null, "downthrown_side_dir": null, "downthrown_side_id": null, "epistemic_quality": null, "exposure_quality": null, "fs_name": null, "last_movement": null, "lower_seis_depth": "(18.0,,)", "name": null, "net_slip_rate": "(5.3,5.3,5.388)", "notes": null, "reference": null, "shortening_rate": null, "slip_type": "Sinistral", "strike_slip_rate": null, "upper_seis_depth": "(0.0,,)", "vert_sep_rate": null }, "geometry": { "type": "LineString", "coordinates": [ [ 29.0782, 40.3946 ], [ 28.967527, 40.404676 ], [ 28.860915, 40.436058 ], [ 28.74839, 40.451512 ], [ 28.634488, 40.459319 ], [ 28.520673, 40.467921 ], [ 28.406589, 40.474277 ], [ 28.294023, 40.458838 ], [ 28.181656, 40.442688 ], [ 28.069315, 40.426542 ], [ 27.957, 40.4104 ] ] } },
{ "type": "Feature", "properties": { "accuracy": null, "activity_confidence": null, "average_dip": "(67.0,49,85)", "average_rake": "(180,180,180)", "catalog_id": "EUR_TRCS024", "catalog_name": "SHARE", "dip_dir": null, "downthrown_side_dir": null, "downthrown_side_id": null, "epistemic_quality": null, "exposure_quality": null, "fs_name": null, "last_movement": null, "lower_seis_depth": "(18.0,,)", "name": null, "net_slip_rate": "(3.0,3.0,3.0)", "notes": null, "reference": null, "shortening_rate": null, "slip_type": "Dextral", "strike_slip_rate": null, "upper_seis_depth": "(0.0,,)", "vert_sep_rate": null }, "geometry": { "type": "LineString", "coordinates": [ [ 27.9101, 40.3779 ], [ 27.804171, 40.339367 ], [ 27.696729, 40.300284 ], [ 27.584919, 40.269237 ], [ 27.466, 40.2715 ] ] } },
{ "type": "Feature", "properties": { "accuracy": null, "activity_confidence": null, "average_dip": "(85.0,85,85)", "average_rake": "(180,180,180)", "catalog_id": "EUR_TRCS025", "catalog_name": "SHARE", "dip_dir": null, "downthrown_side_dir": null, "downthrown_side_id": null, "epistemic_quality": null, "exposure_quality": null, "fs_name": null, "last_movement": null, "lower_seis_depth": "(18.0,,)", "name": null, "net_slip_rate": "(3.0,3.0,3.0)", "notes": null, "reference": null, "shortening_rate": null, "slip_type": "Dextral", "strike_slip_rate": null, "upper_seis_depth": "(0.0,,)", "vert_sep_rate": null }, "geometry": { "type": "LineString", "coordinates": [ [ 27.7157, 40.2452 ], [ 27.594346, 40.21005 ], [ 27.472408, 40.174731 ], [ 27.362406, 40.121314 ], [ 27.2535, 40.0667 ] ] } },
{ "type": "Feature", "properties": { "accuracy": null, "activity_confidence": null, "average_dip": "(85.0,85,85)", "average_rake": "(180,180,180)", "catalog_id": "EUR_TRCS026", "catalog_name": "SHARE", "dip_dir": null, "downthrown_side_dir": null, "downthrown_side_id": null, "epistemic_quality": null, "exposure_quality": null, "fs_name": null, "last_movement": null, "lower_seis_depth": "(18.0,,)", "name": null, "net_slip_rate": "(3.0,3.0,3.0)", "notes": null, "reference": null, "shortening_rate": null, "slip_type": "Dextral", "strike_slip_rate": null, "upper_seis_depth": "(0.0,,)", "vert_sep_rate": null }, "geometry": { "type": "LineString", "coordinates": [ [ 27.9913, 40.2626 ], [ 28.1144, 40.3135 ] ] } },
{ "type": "Feature", "properties": { "accuracy": null, "activity_confidence": null, "average_dip": "(85.0,85,85)", "average_rake": "(7,180,-166)", "catalog_id": "EUR_TRCS027", "catalog_name": "SHARE", "dip_dir": null, "downthrown_side_dir": null, "downthrown_side_id": null, "epistemic_quality": null, "exposure_quality": null, "fs_name": null, "last_movement": null, "lower_seis_depth": "(18.0,,)", "name": null, "net_slip_rate": "(3.6,3.0,4.124)", "notes": null, "reference": null, "shortening_rate": null, "slip_type": "Sinistral", "strike_slip_rate": null, "upper_seis_depth": "(0.0,,)", "vert_sep_rate": null }, "geometry": { "type": "LineString", "coordinates": [ [ 27.1755, 40.072 ], [ 27.091172, 40.039588 ], [ 26.985564, 39.999874 ], [ 26.87507, 39.969038 ], [ 26.769303, 39.929745 ], [ 26.668225, 39.883852 ], [ 26.584852, 39.820438 ], [ 26.473328, 39.792538 ], [ 26.361844, 39.764648 ], [ 26.250402, 39.736769 ], [ 26.139, 39.7089 ] ] } },
{ "type": "Feature", "properties": { "accuracy": null, "activity_confidence": null, "average_dip": "(85.0,85,85)", "average_rake": "(180,180,180)", "catalog_id": "EUR_TRCS028", "catalog_name": "SHARE", "dip_dir": null, "downthrown_side_dir": null, "downthrown_side_id": null, "epistemic_quality": null, "exposure_quality": null, "fs_name": null, "last_movement": null, "lower_seis_depth": "(18.0,,)", "name": null, "net_slip_rate": "(3.4,3.4,3.4)", "notes": null, "reference": null, "shortening_rate": null, "slip_type": "Dextral", "strike_slip_rate": null, "upper_seis_depth": "(0.0,,)", "vert_sep_rate": null }, "geometry": { "type": "LineString", "coordinates": [ [ 29.968954, 40.374307 ], [ 29.880464, 40.329635 ], [ 29.775091, 40.282968 ], [ 29.669849, 40.236226 ], [ 29.559351, 40.197298 ], [ 29.447457, 40.160877 ] ] } },
{ "type": "Feature", "properties": { "accuracy": null, "activity_confidence": null, "average_dip": "(50.0,50,50)", "average_rake": "(-104,-104,-104)", "catalog_id": "EUR_TRCS029", "catalog_name": "SHARE", "dip_dir": null, "downthrown_side_dir": null, "downthrown_side_id": null, "epistemic_quality": null, "exposure_quality": null, "fs_name": null, "last_movement": null, "lower_seis_depth": "(18.0,,)", "name": null, "net_slip_rate": "None", "notes": null, "reference": null, "shortening_rate": null, "slip_type": "Normal", "strike_slip_rate": null, "upper_seis_depth": "(0.0,,)", "vert_sep_rate": null }, "geometry": { "type": "LineString", "coordinates": [ [ 28.812789, 40.170987 ], [ 28.946092, 40.170734 ], [ 29.079386, 40.170481 ], [ 29.21268, 40.170228 ] ] } },
{ "type": "Feature", "properties": { "accuracy": null, "activity_confidence": null, "average_dip": "(40.0,40,40)", "average_rake": "(-108,-108,-108)", "catalog_id": "EUR_TRCS030", "catalog_name": "SHARE", "dip_dir": null, "downthrown_side_dir": null, "downthrown_side_id": null, "epistemic_quality": null, "exposure_quality": null, "fs_name": null, "last_movement": null, "lower_seis_depth": "(18.0,,)", "name": null, "net_slip_rate": "None", "notes": null, "reference": null, "shortening_rate": null, "slip_type": "Normal", "strike_slip_rate": null, "upper_seis_depth": "(0.0,,)", "vert_sep_rate": null }, "geometry": { "type": "LineString", "coordinates": [ [ 28.4286, 40.0182 ], [ 28.318595, 40.036214 ], [ 28.208273, 40.05428 ], [ 28.097923, 40.07235 ], [ 27.986661, 40.086886 ], [ 27.875743, 40.102991 ], [ 27.7648, 40.1191 ] ] } },
{ "type": "Feature", "properties": { "accuracy": null, "activity_confidence": null, "average_dip": "(68.0,60,76)", "average_rake": "(19,180,-142)", "catalog_id": "EUR_TRCS031", "catalog_name": "SHARE", "dip_dir": null, "downthrown_side_dir": null, "downthrown_side_id": null, "epistemic_quality": null, "exposure_quality": null, "fs_name": null, "last_movement": null, "lower_seis_depth": "(18.0,,)", "name": null, "net_slip_rate": "(3.6,3.0,4.1306)", "notes": null, "reference": null, "shortening_rate": null, "slip_type": "Sinistral", "strike_slip_rate": null, "upper_seis_depth": "(0.0,,)", "vert_sep_rate": null }, "geometry": { "type": "LineString", "coordinates": [ [ 27.78658, 40.11124 ], [ 27.689575, 40.091111 ], [ 27.574162, 40.067163 ], [ 27.486356, 40.005097 ], [ 27.384085, 39.957864 ], [ 27.281866, 39.910654 ], [ 27.163195, 39.901436 ], [ 27.04728, 39.87995 ] ] } },
{ "type": "Feature", "properties": { "accuracy": null, "activity_confidence": null, "average_dip": "(80.0,80,80)", "average_rake": "(180,180,180)", "catalog_id": "EUR_TRCS032", "catalog_name": "SHARE", "dip_dir": null, "downthrown_side_dir": null, "downthrown_side_id": null, "epistemic_quality": null, "exposure_quality": null, "fs_name": null, "last_movement": null, "lower_seis_depth": "(18.0,,)", "name": null, "net_slip_rate": "(2.0,2.0,2.0)", "notes": null, "reference": null, "shortening_rate": null, "slip_type": "Dextral", "strike_slip_rate": null, "upper_seis_depth": "(0.0,,)", "vert_sep_rate": null }, "geometry": { "type": "LineString", "coordinates": [ [ 26.867483563110131, 39.6 ], [ 26.900082, 39.616412 ], [ 26.992892, 39.663138 ], [ 27.085745, 39.709886 ], [ 27.178642, 39.756656 ], [ 27.271584, 39.803448 ], [ 27.36457, 39.850263 ], [ 27.4576, 39.8971 ] ] } },
{ "type": "Feature", "properties": { "accuracy": null, "activity_confidence": null, "average_dip": "(60.0,60,60)", "average_rake": "(-134,-164,-105)", "catalog_id": "EUR_TRCS033", "catalog_name": "SHARE", "dip_dir": null, "downthrown_side_dir": null, "downthrown_side_id": null, "epistemic_quality": null, "exposure_quality": null, "fs_name": null, "last_movement": null, "lower_seis_depth": "(18.0,,)", "name": null, "net_slip_rate": "(3.9,3.6638,4.1633)", "notes": null, "reference": null, "shortening_rate": null, "slip_type": "Dextral-Normal", "strike_slip_rate": null, "upper_seis_depth": "(0.0,,)", "vert_sep_rate": null }, "geometry": { "type": "LineString", "coordinates": [ [ 27.0199, 39.731 ], [ 26.964525, 39.693799 ], [ 26.872464, 39.63618 ], [ 26.761756, 39.60347 ], [ 26.749745960077348, 39.6 ] ] } },
{ "type": "Feature", "properties": { "accuracy": null, "activity_confidence": null, "average_dip": "(80.0,80,80)", "average_rake": "(-161,-161,-161)", "catalog_id": "EUR_TRCS034", "catalog_name": "SHARE", "dip_dir": null, "downthrown_side_dir": null, "downthrown_side_id": null, "epistemic_quality": null, "exposure_quality": null, "fs_name": null, "last_movement": null, "lower_seis_depth": "(18.0,,)", "name": null, "net_slip_rate": "None", "notes": null, "reference": null, "shortening_rate": null, "slip_type": "Dextral", "strike_slip_rate": null, "upper_seis_depth": "(0.0,,)", "vert_sep_rate": null }, "geometry": { "type": "LineString", "coordinates": [ [ 27.38658, 39.62084 ], [ 27.53292, 39.66427 ] ] } },
{ "type": "Feature", "properties": { "accuracy": null, "activity_confidence": null, "average_dip": "(80.0,80,80)", "average_rake": "(180,180,180)", "catalog_id": "EUR_TRCS036", "catalog_name": "SHARE", "dip_dir": null, "downthrown_side_dir": null, "downthrown_side_id": null, "epistemic_quality": null, "exposure_quality": null, "fs_name": null, "last_movement": null, "lower_seis_depth": "(18.0,,)", "name": null, "net_slip_rate": "(2.0,2.0,2.0)", "notes": null, "reference": null, "shortening_rate": null, "slip_type": "Dextral", "strike_slip_rate": null, "upper_seis_depth": "(0.0,,)", "vert_sep_rate": null }, "geometry": { "type": "LineString", "coordinates": [ [ 27.57924, 39.88959 ], [ 27.70416, 39.95027 ] ] } },
{ "type": "Feature", "properties": { "accuracy": null, "activity_confidence": null, "average_dip": "(85.0,85,85)", "average_rake": "(180,180,180)", "catalog_id": "EUR_TRCS038", "catalog_name": "SHARE", "dip_dir": null, "downthrown_side_dir": null, "downthrown_side_id": null, "epistemic_quality": null, "exposure_quality": null, "fs_name": null, "last_movement": null, "lower_seis_depth": "(18.0,,)", "name": null, "net_slip_rate": "(5.3,5.3,5.3)", "notes": null, "reference": null, "shortening_rate": null, "slip_type": "Dextral", "strike_slip_rate": null, "upper_seis_depth": "(0.0,,)", "vert_sep_rate": null }, "geometry": { "type": "LineString", "coordinates": [ [ 28.911, 40.349927 ], [ 29.01245, 40.367772 ], [ 29.113925, 40.385621 ], [ 29.215426, 40.403475 ] ] } },
{ "type": "Feature", "properties": { "accuracy": null, "activity_confidence": null, "average_dip": "(85.0,85,85)", "average_rake": "(180,180,180)", "catalog_id": "EUR_TRCS039", "catalog_name": "SHARE", "dip_dir": null, "downthrown_side_dir": null, "downthrown_side_id": null, "epistemic_quality": null, "exposure_quality": null, "fs_name": null, "last_movement": null, "lower_seis_depth": "(18.0,,)", "name": null, "net_slip_rate": "(3.4,3.4,3.4)", "notes": null, "reference": null, "shortening_rate": null, "slip_type": "Dextral", "strike_slip_rate": null, "upper_seis_depth": "(0.0,,)", "vert_sep_rate": null }, "geometry": { "type": "LineString", "coordinates": [ [ 29.386841, 40.219232 ], [ 29.486794, 40.266716 ], [ 29.586795, 40.314221 ] ] } },
{ "type": "Feature", "properties": { "accuracy": null, "activity_confidence": null, "average_dip": "(85.0,85,85)", "average_rake": "(180,180,180)", "catalog_id": "EUR_TRCS040", "catalog_name": "SHARE", "dip_dir": null, "downthrown_side_dir": null, "downthrown_side_id": null, "epistemic_quality": null, "exposure_quality": null, "fs_name": null, "last_movement": null, "lower_seis_depth": "(18.0,,)", "name": null, "net_slip_rate": "(3.4,3.4,3.4)", "notes": null, "reference": null, "shortening_rate": null, "slip_type": "Dextral", "strike_slip_rate": null, "upper_seis_depth": "(0.0,,)", "vert_sep_rate": null }, "geometry": { "type": "LineString", "coordinates": [ [ 28.462543, 40.021253 ], [ 28.576002, 40.077802 ], [ 28.689525, 40.134381 ], [ 28.803114, 40.190994 ] ] } },
{ "type": "Feature", "properties": { "accuracy": null, "activity_confidence": null, "average_dip": "(50.0,50,50)", "average_rake": "(-111,-111,-111)", "catalog_id": "EUR_TRCS041", "catalog_name": "SHARE", "dip_dir": null, "downthrown_side_dir": null, "downthrown_side_id": null, "epistemic_quality": null, "exposure_quality": null, "fs_name": null, "last_movement": null, "lower_seis_depth": "(18.0,,)", "name": null, "net_slip_rate": "None", "notes": null, "reference": null, "shortening_rate": null, "slip_type": "Normal", "strike_slip_rate": null, "upper_seis_depth": "(0.0,,)", "vert_sep_rate": null }, "geometry": { "type": "LineString", "coordinates": [ [ 29.226585, 40.211794 ], [ 29.329274, 40.202058 ], [ 29.431945, 40.192324 ] ] } },
{ "type": "Feature", "properties": { "accuracy": null, "activity_confidence": null, "average_dip": "(50.0,50,50)", "average_rake": "(-111,-111,-111)", "catalog_id": "EUR_TRCS042", "catalog_name": "SHARE", "dip_dir": null, "downthrown_side_dir": null, "downthrown_side_id": null, "epistemic_quality": null, "exposure_quality": null, "fs_name": null, "last_movement": null, "lower_seis_depth": "(18.0,,)", "name": null, "net_slip_rate": "None", "notes": null, "reference": null, "shortening_rate": null, "slip_type": "Normal", "strike_slip_rate": null, "upper_seis_depth": "(0.0,,)", "vert_sep_rate": null }, "geometry": { "type": "LineString", "coordinates": [ [ 29.157808, 40.268295 ], [ 29.25304, 40.24471 ], [ 29.348241, 40.221132 ] ] } },
{ "type": "Feature", "properties": { "accuracy": null, "activity_confidence": null, "average_dip": "(80.0,80,80)", "average_rake": "(180,180,180)", "catalog_id": "EUR_TRCS043", "catalog_name": "SHARE", "dip_dir": null, "downthrown_side_dir": null, "downthrown_side_id": null, "epistemic_quality": null, "exposure_quality": null, "fs_name": null, "last_movement": null, "lower_seis_depth": "(18.0,,)", "name": null, "net_slip_rate": "(2.0,2.0,2.0)", "notes": null, "reference": null, "shortening_rate": null, "slip_type": "Dextral", "strike_slip_rate": null, "upper_seis_depth": "(0.0,,)", "vert_sep_rate": null }, "geometry": { "type": "LineString", "coordinates": [ [ 27.40078, 39.84557 ], [ 27.481071, 39.886013 ], [ 27.56139, 39.92647 ] ] } },
{ "type": "Feature", "properties": { "accuracy": null, "activity_confidence": null, "average_dip": "(80.0,80,80)", "average_rake": "(-161,-161,-161)", "catalog_id": "EUR_TRCS044", "catalog_name": "SHARE", "dip_dir": null, "downthrown_side_dir": null, "downthrown_side_id": null, "epistemic_quality": null, "exposure_quality": null, "fs_name": null, "last_movement": null, "lower_seis_depth": "(18.0,,)", "name": null, "net_slip_rate": "None", "notes": null, "reference": null, "shortening_rate": null, "slip_type": "Dextral", "strike_slip_rate": null, "upper_seis_depth": "(0.0,,)", "vert_sep_rate": null }, "geometry": { "type": "LineString", "coordinates": [ [ 29.239443, 40.177823 ], [ 29.350858, 40.159504 ], [ 29.462237, 40.141191 ], [ 29.573587, 40.122883 ] ] } },
{ "type": "Feature", "properties": { "accuracy": null, "activity_confidence": null, "average_dip": "(70.0,70,70)", "average_rake": "(-146,-146,-146)", "catalog_id": "EUR_TRCS195", "catalog_name": "SHARE", "dip_dir": null, "downthrown_side_dir": null, "downthrown_side_id": null, "epistemic_quality": null, "exposure_quality": null, "fs_name": null, "last_movement": null, "lower_seis_depth": "(15.0,,)", "name": null, "net_slip_rate": "(1.6,0.0001,3.1832)", "notes": null, "reference": null, "shortening_rate": null, "slip_type": "Dextral-Normal", "strike_slip_rate": null, "upper_seis_depth": "(0.0,,)", "vert_sep_rate": null }, "geometry": { "type": "LineString", "coordinates": [ [ 30.9, 39.690704408354932 ], [ 30.842699, 39.707609 ] ] } },
{ "type": "Feature", "properties": { "accuracy": null, "activity_confidence": null, "average_dip": "(65.0,60,70)", "average_rake": "(-138,-146,-130)", "catalog_id": "EUR_TRCS197", "catalog_name": "SHARE", "dip_dir": null, "downthrown_side_dir": null, "downthrown_side_id": null, "epistemic_quality": null, "exposure_quality": null, "fs_name": null, "last_movement": null, "lower_seis_depth": "(15.0,,)", "name": null, "net_slip_rate": "(1.6,0.0001,3.1832)", "notes": null, "reference": null, "shortening_rate": null, "slip_type": "Dextral-Normal", "strike_slip_rate": null, "upper_seis_depth": "(0.0,,)", "vert_sep_rate": null }, "geometry": { "type": "LineString", "coordinates": [ [ 30.9, 39.918629050849141 ], [ 30.85206, 39.906584 ], [ 30.737855, 39.8636 ] ] } },
{ "type": "Feature", "properties": { "accuracy": null, "activity_confidence": null, "average_dip": "(56.0,56,56)", "average_rake": "(-137,-145,-130)", "catalog_id": "EUR_TRCS198", "catalog_name": "SHARE", "dip_dir": null, "downthrown_side_dir": null, "downthrown_side_id": null, "epistemic_quality": null, "exposure_quality": null, "fs_name": null, "last_movement": null, "lower_seis_depth": "(15.0,,)", "name": null, "net_slip_rate": "(1.6,0.0001,3.2334)", "notes": null, "reference": null, "shortening_rate": null, "slip_type": "Dextral-Normal", "strike_slip_rate": null, "upper_seis_depth": "(0.0,,)", "vert_sep_rate": null }, "geometry": { "type": "LineString", "coordinates": [ [ 30.727258, 39.81731 ], [ 30.602254, 39.851829 ], [ 30.471048, 39.876612 ], [ 30.340215, 39.850701 ] ] } },
{ "type": "Feature", "properties": { "accuracy": null, "activity_confidence": null, "average_dip": "(70.0,70,70)", "average_rake": "(-146,-146,-146)", "catalog_id": "EUR_TRCS199", "catalog_name": "SHARE", "dip_dir": null, "downthrown_side_dir": null, "downthrown_side_id": null, "epistemic_quality": null, "exposure_quality": null, "fs_name": null, "last_movement": null, "lower_seis_depth": "(15.0,,)", "name": null, "net_slip_rate": "(1.6,0.0001,3.1832)", "notes": null, "reference": null, "shortening_rate": null, "slip_type": "Dextral-Normal", "strike_slip_rate": null, "upper_seis_depth": "(0.0,,)", "vert_sep_rate": null }, "geometry": { "type": "LineString", "coordinates": [ [ 30.712493, 39.668302 ], [ 30.622471, 39.700738 ], [ 30.524751, 39.731559 ], [ 30.420987, 39.746851 ], [ 30.322949, 39.777199 ], [ 30.224873, 39.807559 ] ] } },
{ "type": "Feature", "properties": { "accuracy": null, "activity_confidence": null, "average_dip": "(70.0,70,70)", "average_rake": "(-146,-146,-146)", "catalog_id": "EUR_TRCS200", "catalog_name": "SHARE", "dip_dir": null, "downthrown_side_dir": null, "downthrown_side_id": null, "epistemic_quality": null, "exposure_quality": null, "fs_name": null, "last_movement": null, "lower_seis_depth": "(15.0,,)", "name": null, "net_slip_rate": "(1.6,0.0001,3.1832)", "notes": null, "reference": null, "shortening_rate": null, "slip_type": "Dextral-Normal", "strike_slip_rate": null, "upper_seis_depth": "(0.0,,)", "vert_sep_rate": null }, "geometry": { "type": "LineString", "coordinates": [ [ 29.979502, 39.917039 ], [ 30.087517, 39.898101 ], [ 30.195496, 39.879168 ], [ 30.303447, 39.860241 ] ] } },
{ "type": "Feature", "properties": { "accuracy": null, "activity_confidence": null, "average_dip": "(70.0,70,70)", "average_rake": "(-146,-146,-146)", "catalog_id": "EUR_TRCS201", "catalog_name": "SHARE", "dip_dir": null, "downthrown_side_dir": null, "downthrown_side_id": null, "epistemic_quality": null, "exposure_quality": null, "fs_name": null, "last_movement": null, "lower_seis_depth": "(15.0,,)", "name": null, "net_slip_rate": "(1.6,0.0001,3.1832)", "notes": null, "reference": null, "shortening_rate": null, "slip_type": "Dextral-Normal", "strike_slip_rate": null, "upper_seis_depth": "(0.0,,)", "vert_sep_rate": null }, "geometry": { "type": "LineString", "coordinates": [ [ 30.077573, 39.812599 ], [ 30.245842, 39.814747 ] ] } },
{ "type": "Feature", "properties": { "accuracy": null, "activity_confidence": null, "average_dip": "(72.5,70,75)", "average_rake": "(-144,-146,-142)", "catalog_id": "EUR_TRCS202", "catalog_name": "SHARE", "dip_dir": null, "downthrown_side_dir": null, "downthrown_side_id": null, "epistemic_quality": null, "exposure_quality": null, "fs_name": null, "last_movement": null, "lower_seis_depth": "(13.0,,)", "name": null, "net_slip_rate": "(1.6,0.0001,3.1736)", "notes": null, "reference": null, "shortening_rate": null, "slip_type": "Dextral-Normal", "strike_slip_rate": null, "upper_seis_depth": "(0.0,,)", "vert_sep_rate": null }, "geometry": { "type": "LineString", "coordinates": [ [ 30.06152, 39.854308 ], [ 30.022866, 39.860083 ], [ 29.915017, 39.88797 ], [ 29.803175, 39.904275 ], [ 29.696162, 39.934157 ], [ 29.601781, 39.983098 ], [ 29.502813, 40.026477 ], [ 29.417571, 40.084542 ], [ 29.32326, 40.133793 ], [ 29.217282, 40.16646 ] ] } },
{ "type": "Feature", "properties": { "accuracy": null, "activity_confidence": null, "average_dip": "(70.0,70,70)", "average_rake": "(-146,-146,-146)", "catalog_id": "EUR_TRCS232", "catalog_name": "SHARE", "dip_dir": null, "downthrown_side_dir": null, "downthrown_side_id": null, "epistemic_quality": null, "exposure_quality": null, "fs_name": null, "last_movement": null, "lower_seis_depth": "(15.0,,)", "name": null, "net_slip_rate": "(1.6,0.0001,3.1832)", "notes": null, "reference": null, "shortening_rate": null, "slip_type": "Dextral-Normal", "strike_slip_rate": null, "upper_seis_depth": "(0.0,,)", "vert_sep_rate": null }, "geometry": { "type": "LineString", "coordinates": [ [ 28.163514, 39.668258 ], [ 28.162037972176993, 39.6 ] ] } },
{ "type": "Feature", "properties": { "accuracy": null, "activity_confidence": null, "average_dip": "(70.0,70,70)", "average_rake": "(180,180,180)", "catalog_id": "EUR_TRCS233", "catalog_name": "SHARE", "dip_dir": null, "downthrown_side_dir": null, "downthrown_side_id": null, "epistemic_quality": null, "exposure_quality": null, "fs_name": null, "last_movement": null, "lower_seis_depth": "(15.0,,)", "name": null, "net_slip_rate": "(2.0,2.0,2.0)", "notes": null, "reference": null, "shortening_rate": null, "slip_type": "Dextral", "strike_slip_rate": null, "upper_seis_depth": "(0.0,,)", "vert_sep_rate": null }, "geometry": { "type": "LineString", "coordinates": [ [ 27.979009332381167, 39.6 ], [ 28.077637, 39.654422 ], [ 28.17666, 39.709063 ], [ 28.275736, 39.763732 ], [ 28.374863, 39.81843 ] ] } },
{ "type": "Feature", "properties": { "accuracy": null, "activity_confidence": null, "average_dip": "(70.0,70,70)", "average_rake": "(-166,-166,-166)", "catalog_id": "EUR_TRCS234", "catalog_name": "SHARE", "dip_dir": null, "downthrown_side_dir": null, "downthrown_side_id": null, "epistemic_quality": null, "exposure_quality": null, "fs_name": null, "last_movement": null, "lower_seis_depth": "(15.0,,)", "name": null, "net_slip_rate": "(2.1,2.0,2.2655)", "notes": null, "reference": null, "shortening_rate": null, "slip_type": "Dextral", "strike_slip_rate": null, "upper_seis_depth": "(0.0,,)", "vert_sep_rate": null }, "geometry": { "type": "LineString", "coordinates": [ [ 27.867323, 39.624878 ], [ 27.759243, 39.622199 ], [ 27.651172, 39.619521 ], [ 27.543105, 39.616842 ] ] } },
{ "type": "Feature", "properties": { "accuracy": null, "activity_confidence": null, "average_dip": "(64.0,64,64)", "average_rake": "(-130,-130,-130)", "catalog_id": "EUR_TRCS311", "catalog_name": "SHARE", "dip_dir": null, "downthrown_side_dir": null, "downthrown_side_id": null, "epistemic_quality": null, "exposure_quality": null, "fs_name": null, "last_movement": null, "lower_seis_depth": "(15.0,,)", "name": null, "net_slip_rate": "(1.3,0.0001,2.6836)", "notes": null, "reference": null, "shortening_rate": null, "slip_type": "Dextral-Normal", "strike_slip_rate": null, "upper_seis_depth": "(0.0,,)", "vert_sep_rate": null }, "geometry": { "type": "LineString", "coordinates": [ [ 28.993210098591533, 39.6 ], [ 28.910402, 39.620125 ], [ 28.795141, 39.628914 ], [ 28.679866, 39.637704 ], [ 28.564576, 39.646495 ], [ 28.449272, 39.655287 ], [ 28.333953, 39.66408 ], [ 28.218619, 39.672874 ] ] } },
{ "type": "Feature", "properties": { "accuracy": null, "activity_confidence": null, "average_dip": "(34.0,30,38)", "average_rake": "(90,90,90)", "catalog_id": "EUR_TRCS407", "catalog_name": "SHARE", "dip_dir": null, "downthrown_side_dir": null, "downthrown_side_id": null, "epistemic_quality": null, "exposure_quality": null, "fs_name": null, "last_movement": null, "lower_seis_depth": "(16.0,,)", "name": null, "net_slip_rate": "(1.0,0.0001,2.0)", "notes": null, "reference": null, "shortening_rate": null, "slip_type": "Reverse", "strike_slip_rate": null, "upper_seis_depth": "(1.5,,)", "vert_sep_rate": null }, "geometry": { "type": "LineString", "coordinates": [ [ 30.9, 41.617438192668416 ], [ 30.870704, 41.611398 ], [ 30.755271, 41.587598 ], [ 30.639877, 41.563807 ], [ 30.524356, 41.540472 ], [ 30.408859, 41.517184 ], [ 30.2934, 41.493904 ], [ 30.17864, 41.468877 ], [ 30.059295, 41.473547 ], [ 29.939941, 41.478218 ], [ 29.820579, 41.482889 ], [ 29.701208, 41.487561 ], [ 29.581828, 41.492233 ], [ 29.46244, 41.496905 ], [ 29.343043, 41.501575 ], [ 29.223618, 41.505904 ], [ 29.104185, 41.510232 ], [ 28.984744, 41.514561 ], [ 28.865295, 41.51889 ], [ 28.745838, 41.52322 ], [ 28.626373, 41.52755 ], [ 28.5069, 41.53188 ] ] } },
{ "type": "Feature", "properties": { "accuracy": null, "activity_confidence": null, "average_dip": "(85.0,85,85)", "average_rake": "(180,180,180)", "catalog_id": "EUR_TRCS417", "catalog_name": "SHARE", "dip_dir": null, "downthrown_side_dir": null, "downthrown_side_id": null, "epistemic_quality": null, "exposure_quality": null, "fs_name": null, "last_movement": null, "lower_seis_depth": "(18.0,,)", "name": null, "net_slip_rate": "(3.0,3.0,3.0)", "notes": null, "reference": null, "shortening_rate": null, "slip_type": "Dextral", "strike_slip_rate": null, "upper_seis_depth": "(0.0,,)", "vert_sep_rate": null }, "geometry": { "type": "LineString", "coordinates": [ [ 26.85807, 39.76465 ], [ 26.939888, 39.821412 ], [ 27.021741, 39.878198 ], [ 27.10363, 39.93501 ] ] } },
{ "type": "Feature", "properties": { "accuracy": null, "activity_confidence": null, "average_dip": "(85.0,85,85)", "average_rake": "(180,180,180)", "catalog_id": "EUR_TRCS418", "catalog_name": "SHARE", "dip_dir": null, "downthrown_side_dir": null, "downthrown_side_id": null, "epistemic_quality": null, "exposure_quality": null, "fs_name": null, "last_movement": null, "lower_seis_depth": "(16.0,,)", "name": null, "net_slip_rate": "(0.5,0.0001,1.0)", "notes": null, "reference": null, "shortening_rate": null, "slip_type": "Dextral", "strike_slip_rate": null, "upper_seis_depth": "(0.0,,)", "vert_sep_rate": null }, "geometry": { "type": "LineString", "coordinates": [ [ 28.66066, 41.09099 ], [ 28.628953, 41.178412 ], [ 28.597254, 41.265809 ], [ 28.565552, 41.353215 ], [ 28.533848, 41.440629 ], [ 28.50214, 41.528051 ], [ 28.470429, 41.615481 ], [ 28.438716, 41.70292 ], [ 28.406999, 41.790367 ], [ 28.375279, 41.877822 ], [ 28.367235341854936, 41.9 ] ] } },
{ "type": "Feature", "properties": { "accuracy": null, "activity_confidence": null, "average_dip": "(65.0,50,80)", "average_rake": "(-90,-100,-80)", "catalog_id": "EUR_TRCS901", "catalog_name": "SHARE", "dip_dir": null, "downthrown_side_dir": null, "downthrown_side_id": null, "epistemic_quality": null, "exposure_quality": null, "fs_name": null, "last_movement": null, "lower_seis_depth": "(15.0,,)", "name": null, "net_slip_rate": "(0.9,0.6,1.1)", "notes": null, "reference": null, "shortening_rate": null, "slip_type": "Normal", "strike_slip_rate": null, "upper_seis_depth": "(0.0,,)", "vert_sep_rate": null }, "geometry": { "type": "LineString", "coordinates": [ [ 26.433029, 40.010732 ], [ 26.418467, 40.002232 ], [ 26.405771, 40.000766 ], [ 26.377766, 39.990508 ], [ 26.365818, 39.98787 ], [ 26.351237, 39.977175 ], [ 26.334398, 39.971274 ], [ 26.318461, 39.968914 ], [ 26.295908, 39.968678 ], [ 26.274558, 39.965137 ], [ 26.253208, 39.961597 ], [ 26.239977, 39.959472 ], [ 26.225048, 39.958853 ], [ 26.205997, 39.958764 ], [ 26.180137, 39.960416 ], [ 26.169011, 39.962305 ] ] } },
{ "type": "Feature", "properties": { "accuracy": null, "activity_confidence": null, "average_dip": "(72.5,55,90)", "average_rake": "(22,180,-135)", "catalog_id": "EUR_TRCS996", "catalog_name": "SHARE", "dip_dir": null, "downthrown_side_dir": null, "downthrown_side_id": null, "epistemic_quality": null, "exposure_quality": null, "fs_name": null, "last_movement": null, "lower_seis_depth": "(19.0,,)", "name": null, "net_slip_rate": "(27.7,26.5,28.8881)", "notes": null, "reference": null, "shortening_rate": null, "slip_type": "Sinistral", "strike_slip_rate": null, "upper_seis_depth": "(0.0,,)", "vert_sep_rate": null }, "geometry": { "type": "LineString", "coordinates": [ [ 28.026022, 40.80224 ], [ 27.881072, 40.811477 ], [ 27.710143, 40.808178 ], [ 27.575641, 40.803779 ], [ 27.501385, 40.79608 ], [ 27.424327, 40.777384 ], [ 27.336198, 40.75212 ], [ 27.20682, 40.715472 ], [ 27.136914, 40.699998 ], [ 27.067007, 40.682895 ], [ 26.987711, 40.655205 ], [ 26.900067, 40.616927 ], [ 26.84888, 40.595414 ], [ 26.681833, 40.532155 ], [ 26.585053, 40.491599 ], [ 26.488272, 40.451043 ], [ 26.321028, 40.371284 ], [ 26.200499, 40.315794 ], [ 26.085589, 40.272354 ], [ 25.926659, 40.247307 ], [ 25.773818, 40.212031 ], [ 25.628512, 40.161581 ], [ 25.6, 40.151190066779016 ] ] } }
]
}
